(STITCH_COUNT:1869)
(EXTENTS_LEFT:-24.819)
(EXTENTS_TOP:-24.875)
(EXTENTS_RIGHT:24.819)
(EXTENTS_BOTTOM:24.875)
(EXTENTS_WIDTH:49.638)
(EXTENTS_HEIGHT:49.750)

G90 (use absolute coordinates)
G21 (coordinates will be specified in millimeters)
G0 X0.0 Y0.0

G0 X-5.285 Y-24.875
G0 Z0.0
G0 X-5.333 Y-24.625
G0 Z1.0
G0 X-5.380 Y-24.375
G0 Z0.0
G0 X-5.333 Y-24.625
G0 Z1.0
G0 X-5.285 Y-24.875
G0 Z0.0
G0 X-5.049 Y-24.625
G0 Z1.0
G0 X-5.333 Y-24.625
G0 Z0.0
G0 X-5.380 Y-24.375
G0 Z1.0
G0 X-4.813 Y-24.375
G0 Z0.0
G0 X-4.577 Y-24.125
G0 Z1.0
G0 X-4.830 Y-24.125
G0 Z0.0
G0 X-5.427 Y-24.125
G0 Z1.0
G0 X-5.474 Y-23.875
G0 Z0.0
G0 X-4.341 Y-23.875
G0 Z1.0
G0 X-4.105 Y-23.625
G0 Z0.0
G0 X-5.521 Y-23.625
G0 Z1.0
G0 X-5.568 Y-23.375
G0 Z0.0
G0 X-3.868 Y-23.375
G0 Z1.0
G0 X-3.632 Y-23.125
G0 Z0.0
G0 X-4.830 Y-23.125
G0 Z1.0
G0 X-5.615 Y-23.125
G0 Z0.0
G0 X-5.662 Y-22.875
G0 Z1.0
G0 X-4.080 Y-22.875
G0 Z0.0
G0 X-3.396 Y-22.875
G0 Z1.0
G0 X-3.160 Y-22.625
G0 Z0.0
G0 X-3.330 Y-22.625
G0 Z1.0
G0 X-5.710 Y-22.625
G0 Z0.0
G0 X-5.757 Y-22.375
G0 Z1.0
G0 X-5.580 Y-22.375
G0 Z0.0
G0 X-2.924 Y-22.375
G0 Z1.0
G0 X-2.688 Y-22.125
G0 Z0.0
G0 X-4.830 Y-22.125
G0 Z1.0
G0 X-5.804 Y-22.125
G0 Z0.0
G0 X-5.851 Y-21.875
G0 Z1.0
G0 X-4.080 Y-21.875
G0 Z0.0
G0 X-2.452 Y-21.875
G0 Z1.0
G0 X-2.215 Y-21.625
G0 Z0.0
G0 X-3.330 Y-21.625
G0 Z1.0
G0 X-5.898 Y-21.625
G0 Z0.0
G0 X-5.945 Y-21.375
G0 Z1.0
G0 X-5.580 Y-21.375
G0 Z0.0
G0 X-2.580 Y-21.375
G0 Z1.0
G0 X-1.979 Y-21.375
G0 Z0.0
G0 X-1.743 Y-21.125
G0 Z1.0
G0 X-4.830 Y-21.125
G0 Z0.0
G0 X-5.992 Y-21.125
G0 Z1.0
G0 X-6.039 Y-20.875
G0 Z0.0
G0 X-4.080 Y-20.875
G0 Z1.0
G0 X-1.507 Y-20.875
G0 Z0.0
G0 X-1.271 Y-20.625
G0 Z1.0
G0 X-3.330 Y-20.625
G0 Z0.0
G0 X-6.086 Y-20.625
G0 Z1.0
G0 X-6.134 Y-20.375
G0 Z0.0
G0 X-5.580 Y-20.375
G0 Z1.0
G0 X-2.580 Y-20.375
G0 Z0.0
G0 X-1.035 Y-20.375
G0 Z1.0
G0 X-0.798 Y-20.125
G0 Z0.0
G0 X-1.830 Y-20.125
G0 Z1.0
G0 X-4.830 Y-20.125
G0 Z0.0
G0 X-6.181 Y-20.125
G0 Z1.0
G0 X-6.228 Y-19.875
G0 Z0.0
G0 X-4.080 Y-19.875
G0 Z1.0
G0 X-1.080 Y-19.875
G0 Z0.0
G0 X-0.562 Y-19.875
G0 Z1.0
G0 X-0.326 Y-19.625
G0 Z0.0
G0 X-3.330 Y-19.625
G0 Z1.0
G0 X-6.275 Y-19.625
G0 Z0.0
G0 X-6.322 Y-19.375
G0 Z1.0
G0 X-5.580 Y-19.375
G0 Z0.0
G0 X-2.580 Y-19.375
G0 Z1.0
G0 X-0.090 Y-19.375
G0 Z0.0
G0 X0.146 Y-19.125
G0 Z1.0
G0 X-1.830 Y-19.125
G0 Z0.0
G0 X-4.830 Y-19.125
G0 Z1.0
G0 X-6.369 Y-19.125
G0 Z0.0
G0 X-6.416 Y-18.875
G0 Z1.0
G0 X-4.080 Y-18.875
G0 Z0.0
G0 X-1.080 Y-18.875
G0 Z1.0
G0 X0.382 Y-18.875
G0 Z0.0
G0 X0.619 Y-18.625
G0 Z1.0
G0 X-0.330 Y-18.625
G0 Z0.0
G0 X-3.330 Y-18.625
G0 Z1.0
G0 X-6.330 Y-18.625
G0 Z0.0
G0 X-6.463 Y-18.625
G0 Z1.0
G0 X-6.511 Y-18.375
G0 Z0.0
G0 X-5.580 Y-18.375
G0 Z1.0
G0 X-2.580 Y-18.375
G0 Z0.0
G0 X0.420 Y-18.375
G0 Z1.0
G0 X0.855 Y-18.375
G0 Z0.0
G0 X1.091 Y-18.125
G0 Z1.0
G0 X-1.830 Y-18.125
G0 Z0.0
G0 X-4.830 Y-18.125
G0 Z1.0
G0 X-6.558 Y-18.125
G0 Z0.0
G0 X-6.605 Y-17.875
G0 Z1.0
G0 X-4.080 Y-17.875
G0 Z0.0
G0 X-1.080 Y-17.875
G0 Z1.0
G0 X1.327 Y-17.875
G0 Z0.0
G0 X1.563 Y-17.625
G0 Z1.0
G0 X-0.330 Y-17.625
G0 Z0.0
G0 X-3.330 Y-17.625
G0 Z1.0
G0 X-6.330 Y-17.625
G0 Z0.0
G0 X-6.652 Y-17.625
G0 Z1.0
G0 X-6.699 Y-17.375
G0 Z0.0
G0 X-5.580 Y-17.375
G0 Z1.0
G0 X-2.580 Y-17.375
G0 Z0.0
G0 X0.420 Y-17.375
G0 Z1.0
G0 X1.799 Y-17.375
G0 Z0.0
G0 X2.036 Y-17.125
G0 Z1.0
G0 X1.170 Y-17.125
G0 Z0.0
G0 X-1.830 Y-17.125
G0 Z1.0
G0 X-4.830 Y-17.125
G0 Z0.0
G0 X-6.746 Y-17.125
G0 Z1.0
G0 X-6.793 Y-16.875
G0 Z0.0
G0 X-4.080 Y-16.875
G0 Z1.0
G0 X-1.080 Y-16.875
G0 Z0.0
G0 X1.920 Y-16.875
G0 Z1.0
G0 X2.272 Y-16.875
G0 Z0.0
G0 X2.508 Y-16.625
G0 Z1.0
G0 X-0.330 Y-16.625
G0 Z0.0
G0 X-3.330 Y-16.625
G0 Z1.0
G0 X-6.330 Y-16.625
G0 Z0.0
G0 X-6.840 Y-16.625
G0 Z1.0
G0 X-6.887 Y-16.375
G0 Z0.0
G0 X-5.580 Y-16.375
G0 Z1.0
G0 X-2.580 Y-16.375
G0 Z0.0
G0 X0.420 Y-16.375
G0 Z1.0
G0 X2.744 Y-16.375
G0 Z0.0
G0 X2.980 Y-16.125
G0 Z1.0
G0 X1.170 Y-16.125
G0 Z0.0
G0 X-1.830 Y-16.125
G0 Z1.0
G0 X-4.830 Y-16.125
G0 Z0.0
G0 X-6.935 Y-16.125
G0 Z1.0
G0 X-6.982 Y-15.875
G0 Z0.0
G0 X-4.080 Y-15.875
G0 Z1.0
G0 X-1.080 Y-15.875
G0 Z0.0
G0 X1.920 Y-15.875
G0 Z1.0
G0 X3.216 Y-15.875
G0 Z0.0
G0 X3.452 Y-15.625
G0 Z1.0
G0 X2.670 Y-15.625
G0 Z0.0
G0 X-0.330 Y-15.625
G0 Z1.0
G0 X-3.330 Y-15.625
G0 Z0.0
G0 X-6.330 Y-15.625
G0 Z1.0
G0 X-7.029 Y-15.625
G0 Z0.0
G0 X-7.076 Y-15.375
G0 Z1.0
G0 X-5.580 Y-15.375
G0 Z0.0
G0 X-2.580 Y-15.375
G0 Z1.0
G0 X0.420 Y-15.375
G0 Z0.0
G0 X3.420 Y-15.375
G0 Z1.0
G0 X3.689 Y-15.375
G0 Z0.0
G0 X3.925 Y-15.125
G0 Z1.0
G0 X1.170 Y-15.125
G0 Z0.0
G0 X-1.830 Y-15.125
G0 Z1.0
G0 X-4.830 Y-15.125
G0 Z0.0
G0 X-7.123 Y-15.125
G0 Z1.0
G0 X-7.170 Y-14.875
G0 Z0.0
G0 X-4.080 Y-14.875
G0 Z1.0
G0 X-1.080 Y-14.875
G0 Z0.0
G0 X1.920 Y-14.875
G0 Z1.0
G0 X4.161 Y-14.875
G0 Z0.0
G0 X4.397 Y-14.625
G0 Z1.0
G0 X2.670 Y-14.625
G0 Z0.0
G0 X-0.330 Y-14.625
G0 Z1.0
G0 X-3.330 Y-14.625
G0 Z0.0
G0 X-6.330 Y-14.625
G0 Z1.0
G0 X-7.217 Y-14.625
G0 Z0.0
G0 X-7.264 Y-14.375
G0 Z1.0
G0 X-5.580 Y-14.375
G0 Z0.0
G0 X-2.580 Y-14.375
G0 Z1.0
G0 X0.420 Y-14.375
G0 Z0.0
G0 X3.420 Y-14.375
G0 Z1.0
G0 X4.633 Y-14.375
G0 Z0.0
G0 X4.869 Y-14.125
G0 Z1.0
G0 X4.170 Y-14.125
G0 Z0.0
G0 X1.170 Y-14.125
G0 Z1.0
G0 X-1.830 Y-14.125
G0 Z0.0
G0 X-4.830 Y-14.125
G0 Z1.0
G0 X-7.312 Y-14.125
G0 Z0.0
G0 X-7.359 Y-13.875
G0 Z1.0
G0 X-7.080 Y-13.875
G0 Z0.0
G0 X-4.080 Y-13.875
G0 Z1.0
G0 X-1.080 Y-13.875
G0 Z0.0
G0 X1.920 Y-13.875
G0 Z1.0
G0 X4.920 Y-13.875
G0 Z0.0
G0 X5.106 Y-13.875
G0 Z1.0
G0 X5.342 Y-13.625
G0 Z0.0
G0 X2.670 Y-13.625
G0 Z1.0
G0 X-0.330 Y-13.625
G0 Z0.0
G0 X-3.330 Y-13.625
G0 Z1.0
G0 X-6.330 Y-13.625
G0 Z0.0
G0 X-7.406 Y-13.625
G0 Z1.0
G0 X-7.453 Y-13.375
G0 Z0.0
G0 X-5.580 Y-13.375
G0 Z1.0
G0 X-2.580 Y-13.375
G0 Z0.0
G0 X0.420 Y-13.375
G0 Z1.0
G0 X3.420 Y-13.375
G0 Z0.0
G0 X5.578 Y-13.375
G0 Z1.0
G0 X5.814 Y-13.125
G0 Z0.0
G0 X4.170 Y-13.125
G0 Z1.0
G0 X1.170 Y-13.125
G0 Z0.0
G0 X-1.830 Y-13.125
G0 Z1.0
G0 X-4.830 Y-13.125
G0 Z0.0
G0 X-7.500 Y-13.125
G0 Z1.0
G0 X-7.547 Y-12.875
G0 Z0.0
G0 X-7.080 Y-12.875
G0 Z1.0
G0 X-4.080 Y-12.875
G0 Z0.0
G0 X-1.080 Y-12.875
G0 Z1.0
G0 X1.920 Y-12.875
G0 Z0.0
G0 X4.920 Y-12.875
G0 Z1.0
G0 X6.050 Y-12.875
G0 Z0.0
G0 X6.286 Y-12.625
G0 Z1.0
G0 X5.670 Y-12.625
G0 Z0.0
G0 X2.670 Y-12.625
G0 Z1.0
G0 X-0.330 Y-12.625
G0 Z0.0
G0 X-3.330 Y-12.625
G0 Z1.0
G0 X-6.330 Y-12.625
G0 Z0.0
G0 X-7.594 Y-12.625
G0 Z1.0
G0 X-7.641 Y-12.375
G0 Z0.0
G0 X-5.580 Y-12.375
G0 Z1.0
G0 X-2.580 Y-12.375
G0 Z0.0
G0 X0.420 Y-12.375
G0 Z1.0
G0 X3.420 Y-12.375
G0 Z0.0
G0 X6.420 Y-12.375
G0 Z1.0
G0 X6.523 Y-12.375
G0 Z0.0
G0 X6.759 Y-12.125
G0 Z1.0
G0 X4.170 Y-12.125
G0 Z0.0
G0 X1.170 Y-12.125
G0 Z1.0
G0 X-1.830 Y-12.125
G0 Z0.0
G0 X-4.830 Y-12.125
G0 Z1.0
G0 X-7.689 Y-12.125
G0 Z0.0
G0 X-7.736 Y-11.875
G0 Z1.0
G0 X-7.080 Y-11.875
G0 Z0.0
G0 X-4.080 Y-11.875
G0 Z1.0
G0 X-1.080 Y-11.875
G0 Z0.0
G0 X1.920 Y-11.875
G0 Z1.0
G0 X4.920 Y-11.875
G0 Z0.0
G0 X7.920 Y-11.875
G0 Z1.0
G0 X10.920 Y-11.875
G0 Z0.0
G0 X13.920 Y-11.875
G0 Z1.0
G0 X16.920 Y-11.875
G0 Z0.0
G0 X19.920 Y-11.875
G0 Z1.0
G0 X22.920 Y-11.875
G0 Z0.0
G0 X23.482 Y-11.875
G0 Z1.0
G0 X23.334 Y-11.625
G0 Z0.0
G0 X20.670 Y-11.625
G0 Z1.0
G0 X17.670 Y-11.625
G0 Z0.0
G0 X14.670 Y-11.625
G0 Z1.0
G0 X11.670 Y-11.625
G0 Z0.0
G0 X8.670 Y-11.625
G0 Z1.0
G0 X5.670 Y-11.625
G0 Z0.0
G0 X2.670 Y-11.625
G0 Z1.0
G0 X-0.330 Y-11.625
G0 Z0.0
G0 X-3.330 Y-11.625
G0 Z1.0
G0 X-6.330 Y-11.625
G0 Z0.0
G0 X-7.783 Y-11.625
G0 Z1.0
G0 X-7.830 Y-11.375
G0 Z0.0
G0 X-5.580 Y-11.375
G0 Z1.0
G0 X-2.580 Y-11.375
G0 Z0.0
G0 X0.420 Y-11.375
G0 Z1.0
G0 X3.420 Y-11.375
G0 Z0.0
G0 X6.420 Y-11.375
G0 Z1.0
G0 X9.420 Y-11.375
G0 Z0.0
G0 X12.420 Y-11.375
G0 Z1.0
G0 X15.420 Y-11.375
G0 Z0.0
G0 X18.420 Y-11.375
G0 Z1.0
G0 X21.420 Y-11.375
G0 Z0.0
G0 X23.185 Y-11.375
G0 Z1.0
G0 X23.037 Y-11.125
G0 Z0.0
G0 X22.170 Y-11.125
G0 Z1.0
G0 X19.170 Y-11.125
G0 Z0.0
G0 X16.170 Y-11.125
G0 Z1.0
G0 X13.170 Y-11.125
G0 Z0.0
G0 X10.170 Y-11.125
G0 Z1.0
G0 X7.170 Y-11.125
G0 Z0.0
G0 X4.170 Y-11.125
G0 Z1.0
G0 X1.170 Y-11.125
G0 Z0.0
G0 X-1.830 Y-11.125
G0 Z1.0
G0 X-4.830 Y-11.125
G0 Z0.0
G0 X-7.830 Y-11.125
G0 Z1.0
G0 X-7.924 Y-10.875
G0 Z0.0
G0 X-7.080 Y-10.875
G0 Z1.0
G0 X-4.080 Y-10.875
G0 Z0.0
G0 X-1.080 Y-10.875
G0 Z1.0
G0 X1.920 Y-10.875
G0 Z0.0
G0 X4.920 Y-10.875
G0 Z1.0
G0 X7.920 Y-10.875
G0 Z0.0
G0 X10.920 Y-10.875
G0 Z1.0
G0 X13.920 Y-10.875
G0 Z0.0
G0 X16.920 Y-10.875
G0 Z1.0
G0 X19.920 Y-10.875
G0 Z0.0
G0 X22.889 Y-10.875
G0 Z1.0
G0 X22.740 Y-10.625
G0 Z0.0
G0 X20.670 Y-10.625
G0 Z1.0
G0 X17.670 Y-10.625
G0 Z0.0
G0 X14.670 Y-10.625
G0 Z1.0
G0 X11.670 Y-10.625
G0 Z0.0
G0 X8.670 Y-10.625
G0 Z1.0
G0 X5.670 Y-10.625
G0 Z0.0
G0 X2.670 Y-10.625
G0 Z1.0
G0 X-0.330 Y-10.625
G0 Z0.0
G0 X-3.330 Y-10.625
G0 Z1.0
G0 X-6.330 Y-10.625
G0 Z0.0
G0 X-7.971 Y-10.625
G0 Z1.0
G0 X-8.018 Y-10.375
G0 Z0.0
G0 X-5.580 Y-10.375
G0 Z1.0
G0 X-2.580 Y-10.375
G0 Z0.0
G0 X0.420 Y-10.375
G0 Z1.0
G0 X3.420 Y-10.375
G0 Z0.0
G0 X6.420 Y-10.375
G0 Z1.0
G0 X9.420 Y-10.375
G0 Z0.0
G0 X12.420 Y-10.375
G0 Z1.0
G0 X15.420 Y-10.375
G0 Z0.0
G0 X18.420 Y-10.375
G0 Z1.0
G0 X21.420 Y-10.375
G0 Z0.0
G0 X22.592 Y-10.375
G0 Z1.0
G0 X22.443 Y-10.125
G0 Z0.0
G0 X22.170 Y-10.125
G0 Z1.0
G0 X19.170 Y-10.125
G0 Z0.0
G0 X16.170 Y-10.125
G0 Z1.0
G0 X13.170 Y-10.125
G0 Z0.0
G0 X10.170 Y-10.125
G0 Z1.0
G0 X7.170 Y-10.125
G0 Z0.0
G0 X4.170 Y-10.125
G0 Z1.0
G0 X1.170 Y-10.125
G0 Z0.0
G0 X-1.830 Y-10.125
G0 Z1.0
G0 X-4.830 Y-10.125
G0 Z0.0
G0 X-7.830 Y-10.125
G0 Z1.0
G0 X-8.065 Y-10.125
G0 Z0.0
G0 X-8.113 Y-9.875
G0 Z1.0
G0 X-7.080 Y-9.875
G0 Z0.0
G0 X-4.080 Y-9.875
G0 Z1.0
G0 X-1.080 Y-9.875
G0 Z0.0
G0 X1.920 Y-9.875
G0 Z1.0
G0 X4.920 Y-9.875
G0 Z0.0
G0 X7.920 Y-9.875
G0 Z1.0
G0 X10.920 Y-9.875
G0 Z0.0
G0 X13.920 Y-9.875
G0 Z1.0
G0 X16.920 Y-9.875
G0 Z0.0
G0 X19.920 Y-9.875
G0 Z1.0
G0 X22.295 Y-9.875
G0 Z0.0
G0 X22.146 Y-9.625
G0 Z1.0
G0 X20.670 Y-9.625
G0 Z0.0
G0 X17.670 Y-9.625
G0 Z1.0
G0 X14.670 Y-9.625
G0 Z0.0
G0 X11.670 Y-9.625
G0 Z1.0
G0 X8.670 Y-9.625
G0 Z0.0
G0 X5.670 Y-9.625
G0 Z1.0
G0 X2.670 Y-9.625
G0 Z0.0
G0 X-0.330 Y-9.625
G0 Z1.0
G0 X-3.330 Y-9.625
G0 Z0.0
G0 X-6.330 Y-9.625
G0 Z1.0
G0 X-8.160 Y-9.625
G0 Z0.0
G0 X-8.207 Y-9.375
G0 Z1.0
G0 X-5.580 Y-9.375
G0 Z0.0
G0 X-2.580 Y-9.375
G0 Z1.0
G0 X0.420 Y-9.375
G0 Z0.0
G0 X3.420 Y-9.375
G0 Z1.0
G0 X6.420 Y-9.375
G0 Z0.0
G0 X9.420 Y-9.375
G0 Z1.0
G0 X12.420 Y-9.375
G0 Z0.0
G0 X15.420 Y-9.375
G0 Z1.0
G0 X18.420 Y-9.375
G0 Z0.0
G0 X21.420 Y-9.375
G0 Z1.0
G0 X21.998 Y-9.375
G0 Z0.0
G0 X21.849 Y-9.125
G0 Z1.0
G0 X19.170 Y-9.125
G0 Z0.0
G0 X16.170 Y-9.125
G0 Z1.0
G0 X13.170 Y-9.125
G0 Z0.0
G0 X10.170 Y-9.125
G0 Z1.0
G0 X7.170 Y-9.125
G0 Z0.0
G0 X4.170 Y-9.125
G0 Z1.0
G0 X1.170 Y-9.125
G0 Z0.0
G0 X-1.830 Y-9.125
G0 Z1.0
G0 X-4.830 Y-9.125
G0 Z0.0
G0 X-7.830 Y-9.125
G0 Z1.0
G0 X-8.254 Y-9.125
G0 Z0.0
G0 X-8.301 Y-8.875
G0 Z1.0
G0 X-7.080 Y-8.875
G0 Z0.0
G0 X-4.080 Y-8.875
G0 Z1.0
G0 X-1.080 Y-8.875
G0 Z0.0
G0 X1.920 Y-8.875
G0 Z1.0
G0 X4.920 Y-8.875
G0 Z0.0
G0 X7.920 Y-8.875
G0 Z1.0
G0 X10.920 Y-8.875
G0 Z0.0
G0 X13.920 Y-8.875
G0 Z1.0
G0 X16.920 Y-8.875
G0 Z0.0
G0 X19.920 Y-8.875
G0 Z1.0
G0 X21.701 Y-8.875
G0 Z0.0
G0 X21.552 Y-8.625
G0 Z1.0
G0 X20.670 Y-8.625
G0 Z0.0
G0 X17.670 Y-8.625
G0 Z1.0
G0 X14.670 Y-8.625
G0 Z0.0
G0 X11.670 Y-8.625
G0 Z1.0
G0 X8.670 Y-8.625
G0 Z0.0
G0 X5.670 Y-8.625
G0 Z1.0
G0 X2.670 Y-8.625
G0 Z0.0
G0 X-0.330 Y-8.625
G0 Z1.0
G0 X-3.330 Y-8.625
G0 Z0.0
G0 X-6.330 Y-8.625
G0 Z1.0
G0 X-8.348 Y-8.625
G0 Z0.0
G0 X-8.395 Y-8.375
G0 Z1.0
G0 X-5.580 Y-8.375
G0 Z0.0
G0 X-2.580 Y-8.375
G0 Z1.0
G0 X0.420 Y-8.375
G0 Z0.0
G0 X3.420 Y-8.375
G0 Z1.0
G0 X6.420 Y-8.375
G0 Z0.0
G0 X9.420 Y-8.375
G0 Z1.0
G0 X12.420 Y-8.375
G0 Z0.0
G0 X15.420 Y-8.375
G0 Z1.0
G0 X18.420 Y-8.375
G0 Z0.0
G0 X21.404 Y-8.375
G0 Z1.0
G0 X21.255 Y-8.125
G0 Z0.0
G0 X19.170 Y-8.125
G0 Z1.0
G0 X16.170 Y-8.125
G0 Z0.0
G0 X13.170 Y-8.125
G0 Z1.0
G0 X10.170 Y-8.125
G0 Z0.0
G0 X7.170 Y-8.125
G0 Z1.0
G0 X4.170 Y-8.125
G0 Z0.0
G0 X1.170 Y-8.125
G0 Z1.0
G0 X-1.830 Y-8.125
G0 Z0.0
G0 X-4.830 Y-8.125
G0 Z1.0
G0 X-7.830 Y-8.125
G0 Z0.0
G0 X-8.442 Y-8.125
G0 Z1.0
G0 X-8.490 Y-7.875
G0 Z0.0
G0 X-7.080 Y-7.875
G0 Z1.0
G0 X-4.080 Y-7.875
G0 Z0.0
G0 X-1.080 Y-7.875
G0 Z1.0
G0 X1.920 Y-7.875
G0 Z0.0
G0 X4.920 Y-7.875
G0 Z1.0
G0 X7.920 Y-7.875
G0 Z0.0
G0 X10.920 Y-7.875
G0 Z1.0
G0 X13.920 Y-7.875
G0 Z0.0
G0 X16.920 Y-7.875
G0 Z1.0
G0 X19.920 Y-7.875
G0 Z0.0
G0 X21.107 Y-7.875
G0 Z1.0
G0 X20.958 Y-7.625
G0 Z0.0
G0 X20.670 Y-7.625
G0 Z1.0
G0 X17.670 Y-7.625
G0 Z0.0
G0 X14.670 Y-7.625
G0 Z1.0
G0 X11.670 Y-7.625
G0 Z0.0
G0 X8.670 Y-7.625
G0 Z1.0
G0 X5.670 Y-7.625
G0 Z0.0
G0 X2.670 Y-7.625
G0 Z1.0
G0 X-0.330 Y-7.625
G0 Z0.0
G0 X-3.330 Y-7.625
G0 Z1.0
G0 X-6.330 Y-7.625
G0 Z0.0
G0 X-8.671 Y-7.625
G0 Z1.0
G0 X-9.248 Y-7.375
G0 Z0.0
G0 X-8.580 Y-7.375
G0 Z1.0
G0 X-5.580 Y-7.375
G0 Z0.0
G0 X-2.580 Y-7.375
G0 Z1.0
G0 X0.420 Y-7.375
G0 Z0.0
G0 X3.420 Y-7.375
G0 Z1.0
G0 X6.420 Y-7.375
G0 Z0.0
G0 X9.420 Y-7.375
G0 Z1.0
G0 X12.420 Y-7.375
G0 Z0.0
G0 X15.420 Y-7.375
G0 Z1.0
G0 X18.420 Y-7.375
G0 Z0.0
G0 X20.810 Y-7.375
G0 Z1.0
G0 X20.661 Y-7.125
G0 Z0.0
G0 X19.170 Y-7.125
G0 Z1.0
G0 X16.170 Y-7.125
G0 Z0.0
G0 X13.170 Y-7.125
G0 Z1.0
G0 X10.170 Y-7.125
G0 Z0.0
G0 X7.170 Y-7.125
G0 Z1.0
G0 X4.170 Y-7.125
G0 Z0.0
G0 X1.170 Y-7.125
G0 Z1.0
G0 X-1.830 Y-7.125
G0 Z0.0
G0 X-4.830 Y-7.125
G0 Z1.0
G0 X-7.830 Y-7.125
G0 Z0.0
G0 X-9.824 Y-7.125
G0 Z1.0
G0 X-10.401 Y-6.875
G0 Z0.0
G0 X-10.080 Y-6.875
G0 Z1.0
G0 X-7.080 Y-6.875
G0 Z0.0
G0 X-4.080 Y-6.875
G0 Z1.0
G0 X-1.080 Y-6.875
G0 Z0.0
G0 X1.920 Y-6.875
G0 Z1.0
G0 X4.920 Y-6.875
G0 Z0.0
G0 X7.920 Y-6.875
G0 Z1.0
G0 X10.920 Y-6.875
G0 Z0.0
G0 X13.920 Y-6.875
G0 Z1.0
G0 X16.920 Y-6.875
G0 Z0.0
G0 X19.920 Y-6.875
G0 Z1.0
G0 X20.513 Y-6.875
G0 Z0.0
G0 X20.364 Y-6.625
G0 Z1.0
G0 X17.670 Y-6.625
G0 Z0.0
G0 X14.670 Y-6.625
G0 Z1.0
G0 X11.670 Y-6.625
G0 Z0.0
G0 X8.670 Y-6.625
G0 Z1.0
G0 X5.670 Y-6.625
G0 Z0.0
G0 X2.670 Y-6.625
G0 Z1.0
G0 X-0.330 Y-6.625
G0 Z0.0
G0 X-3.330 Y-6.625
G0 Z1.0
G0 X-6.330 Y-6.625
G0 Z0.0
G0 X-9.330 Y-6.625
G0 Z1.0
G0 X-10.978 Y-6.625
G0 Z0.0
G0 X-11.555 Y-6.375
G0 Z1.0
G0 X-8.580 Y-6.375
G0 Z0.0
G0 X-5.580 Y-6.375
G0 Z1.0
G0 X-2.580 Y-6.375
G0 Z0.0
G0 X0.420 Y-6.375
G0 Z1.0
G0 X3.420 Y-6.375
G0 Z0.0
G0 X6.420 Y-6.375
G0 Z1.0
G0 X9.420 Y-6.375
G0 Z0.0
G0 X12.420 Y-6.375
G0 Z1.0
G0 X15.420 Y-6.375
G0 Z0.0
G0 X18.420 Y-6.375
G0 Z1.0
G0 X20.216 Y-6.375
G0 Z0.0
G0 X20.067 Y-6.125
G0 Z1.0
G0 X19.170 Y-6.125
G0 Z0.0
G0 X16.170 Y-6.125
G0 Z1.0
G0 X13.170 Y-6.125
G0 Z0.0
G0 X10.170 Y-6.125
G0 Z1.0
G0 X7.170 Y-6.125
G0 Z0.0
G0 X4.170 Y-6.125
G0 Z1.0
G0 X1.170 Y-6.125
G0 Z0.0
G0 X-1.830 Y-6.125
G0 Z1.0
G0 X-4.830 Y-6.125
G0 Z0.0
G0 X-7.830 Y-6.125
G0 Z1.0
G0 X-10.830 Y-6.125
G0 Z0.0
G0 X-12.131 Y-6.125
G0 Z1.0
G0 X-12.708 Y-5.875
G0 Z0.0
G0 X-10.080 Y-5.875
G0 Z1.0
G0 X-7.080 Y-5.875
G0 Z0.0
G0 X-4.080 Y-5.875
G0 Z1.0
G0 X-1.080 Y-5.875
G0 Z0.0
G0 X1.920 Y-5.875
G0 Z1.0
G0 X4.920 Y-5.875
G0 Z0.0
G0 X7.920 Y-5.875
G0 Z1.0
G0 X10.920 Y-5.875
G0 Z0.0
G0 X13.920 Y-5.875
G0 Z1.0
G0 X16.920 Y-5.875
G0 Z0.0
G0 X19.919 Y-5.875
G0 Z1.0
G0 X19.770 Y-5.625
G0 Z0.0
G0 X17.670 Y-5.625
G0 Z1.0
G0 X14.670 Y-5.625
G0 Z0.0
G0 X11.670 Y-5.625
G0 Z1.0
G0 X8.670 Y-5.625
G0 Z0.0
G0 X5.670 Y-5.625
G0 Z1.0
G0 X2.670 Y-5.625
G0 Z0.0
G0 X-0.330 Y-5.625
G0 Z1.0
G0 X-3.330 Y-5.625
G0 Z0.0
G0 X-6.330 Y-5.625
G0 Z1.0
G0 X-9.330 Y-5.625
G0 Z0.0
G0 X-12.330 Y-5.625
G0 Z1.0
G0 X-13.285 Y-5.625
G0 Z0.0
G0 X-13.861 Y-5.375
G0 Z1.0
G0 X-11.580 Y-5.375
G0 Z0.0
G0 X-8.580 Y-5.375
G0 Z1.0
G0 X-5.580 Y-5.375
G0 Z0.0
G0 X-2.580 Y-5.375
G0 Z1.0
G0 X0.420 Y-5.375
G0 Z0.0
G0 X3.420 Y-5.375
G0 Z1.0
G0 X6.420 Y-5.375
G0 Z0.0
G0 X9.420 Y-5.375
G0 Z1.0
G0 X12.420 Y-5.375
G0 Z0.0
G0 X15.420 Y-5.375
G0 Z1.0
G0 X18.420 Y-5.375
G0 Z0.0
G0 X19.622 Y-5.375
G0 Z1.0
G0 X19.473 Y-5.125
G0 Z0.0
G0 X19.170 Y-5.125
G0 Z1.0
G0 X16.170 Y-5.125
G0 Z0.0
G0 X13.170 Y-5.125
G0 Z1.0
G0 X10.170 Y-5.125
G0 Z0.0
G0 X7.170 Y-5.125
G0 Z1.0
G0 X4.170 Y-5.125
G0 Z0.0
G0 X1.170 Y-5.125
G0 Z1.0
G0 X-1.830 Y-5.125
G0 Z0.0
G0 X-4.830 Y-5.125
G0 Z1.0
G0 X-7.830 Y-5.125
G0 Z0.0
G0 X-10.830 Y-5.125
G0 Z1.0
G0 X-13.830 Y-5.125
G0 Z0.0
G0 X-14.438 Y-5.125
G0 Z1.0
G0 X-15.015 Y-4.875
G0 Z0.0
G0 X-13.080 Y-4.875
G0 Z1.0
G0 X-10.080 Y-4.875
G0 Z0.0
G0 X-7.080 Y-4.875
G0 Z1.0
G0 X-4.080 Y-4.875
G0 Z0.0
G0 X-1.080 Y-4.875
G0 Z1.0
G0 X1.920 Y-4.875
G0 Z0.0
G0 X4.920 Y-4.875
G0 Z1.0
G0 X7.920 Y-4.875
G0 Z0.0
G0 X10.920 Y-4.875
G0 Z1.0
G0 X13.920 Y-4.875
G0 Z0.0
G0 X16.920 Y-4.875
G0 Z1.0
G0 X19.325 Y-4.875
G0 Z0.0
G0 X19.176 Y-4.625
G0 Z1.0
G0 X17.670 Y-4.625
G0 Z0.0
G0 X14.670 Y-4.625
G0 Z1.0
G0 X11.670 Y-4.625
G0 Z0.0
G0 X8.670 Y-4.625
G0 Z1.0
G0 X5.670 Y-4.625
G0 Z0.0
G0 X2.670 Y-4.625
G0 Z1.0
G0 X-0.330 Y-4.625
G0 Z0.0
G0 X-3.330 Y-4.625
G0 Z1.0
G0 X-6.330 Y-4.625
G0 Z0.0
G0 X-9.330 Y-4.625
G0 Z1.0
G0 X-12.330 Y-4.625
G0 Z0.0
G0 X-15.330 Y-4.625
G0 Z1.0
G0 X-15.592 Y-4.625
G0 Z0.0
G0 X-16.168 Y-4.375
G0 Z1.0
G0 X-14.580 Y-4.375
G0 Z0.0
G0 X-11.580 Y-4.375
G0 Z1.0
G0 X-8.580 Y-4.375
G0 Z0.0
G0 X-5.580 Y-4.375
G0 Z1.0
G0 X-2.580 Y-4.375
G0 Z0.0
G0 X0.420 Y-4.375
G0 Z1.0
G0 X3.420 Y-4.375
G0 Z0.0
G0 X6.420 Y-4.375
G0 Z1.0
G0 X9.420 Y-4.375
G0 Z0.0
G0 X12.420 Y-4.375
G0 Z1.0
G0 X15.420 Y-4.375
G0 Z0.0
G0 X18.420 Y-4.375
G0 Z1.0
G0 X19.028 Y-4.375
G0 Z0.0
G0 X18.879 Y-4.125
G0 Z1.0
G0 X16.170 Y-4.125
G0 Z0.0
G0 X13.170 Y-4.125
G0 Z1.0
G0 X10.170 Y-4.125
G0 Z0.0
G0 X7.170 Y-4.125
G0 Z1.0
G0 X4.170 Y-4.125
G0 Z0.0
G0 X1.170 Y-4.125
G0 Z1.0
G0 X-1.830 Y-4.125
G0 Z0.0
G0 X-4.830 Y-4.125
G0 Z1.0
G0 X-7.830 Y-4.125
G0 Z0.0
G0 X-10.830 Y-4.125
G0 Z1.0
G0 X-13.830 Y-4.125
G0 Z0.0
G0 X-16.745 Y-4.125
G0 Z1.0
G0 X-17.322 Y-3.875
G0 Z0.0
G0 X-16.080 Y-3.875
G0 Z1.0
G0 X-13.080 Y-3.875
G0 Z0.0
G0 X-10.080 Y-3.875
G0 Z1.0
G0 X-7.080 Y-3.875
G0 Z0.0
G0 X-4.080 Y-3.875
G0 Z1.0
G0 X-1.080 Y-3.875
G0 Z0.0
G0 X1.920 Y-3.875
G0 Z1.0
G0 X4.920 Y-3.875
G0 Z0.0
G0 X7.920 Y-3.875
G0 Z1.0
G0 X10.920 Y-3.875
G0 Z0.0
G0 X13.920 Y-3.875
G0 Z1.0
G0 X16.920 Y-3.875
G0 Z0.0
G0 X18.731 Y-3.875
G0 Z1.0
G0 X18.582 Y-3.625
G0 Z0.0
G0 X17.670 Y-3.625
G0 Z1.0
G0 X14.670 Y-3.625
G0 Z0.0
G0 X11.670 Y-3.625
G0 Z1.0
G0 X8.670 Y-3.625
G0 Z0.0
G0 X5.670 Y-3.625
G0 Z1.0
G0 X2.670 Y-3.625
G0 Z0.0
G0 X-0.330 Y-3.625
G0 Z1.0
G0 X-3.330 Y-3.625
G0 Z0.0
G0 X-6.330 Y-3.625
G0 Z1.0
G0 X-9.330 Y-3.625
G0 Z0.0
G0 X-12.330 Y-3.625
G0 Z1.0
G0 X-15.330 Y-3.625
G0 Z0.0
G0 X-17.898 Y-3.625
G0 Z1.0
G0 X-18.475 Y-3.375
G0 Z0.0
G0 X-17.580 Y-3.375
G0 Z1.0
G0 X-14.580 Y-3.375
G0 Z0.0
G0 X-11.580 Y-3.375
G0 Z1.0
G0 X-8.580 Y-3.375
G0 Z0.0
G0 X-5.580 Y-3.375
G0 Z1.0
G0 X-2.580 Y-3.375
G0 Z0.0
G0 X0.420 Y-3.375
G0 Z1.0
G0 X3.420 Y-3.375
G0 Z0.0
G0 X6.420 Y-3.375
G0 Z1.0
G0 X9.420 Y-3.375
G0 Z0.0
G0 X12.420 Y-3.375
G0 Z1.0
G0 X15.420 Y-3.375
G0 Z0.0
G0 X18.420 Y-3.375
G0 Z1.0
G0 X18.285 Y-3.125
G0 Z0.0
G0 X16.170 Y-3.125
G0 Z1.0
G0 X13.170 Y-3.125
G0 Z0.0
G0 X10.170 Y-3.125
G0 Z1.0
G0 X7.170 Y-3.125
G0 Z0.0
G0 X4.170 Y-3.125
G0 Z1.0
G0 X1.170 Y-3.125
G0 Z0.0
G0 X-1.830 Y-3.125
G0 Z1.0
G0 X-4.830 Y-3.125
G0 Z0.0
G0 X-7.830 Y-3.125
G0 Z1.0
G0 X-10.830 Y-3.125
G0 Z0.0
G0 X-13.830 Y-3.125
G0 Z1.0
G0 X-16.830 Y-3.125
G0 Z0.0
G0 X-19.052 Y-3.125
G0 Z1.0
G0 X-19.629 Y-2.875
G0 Z0.0
G0 X-19.080 Y-2.875
G0 Z1.0
G0 X-16.080 Y-2.875
G0 Z0.0
G0 X-13.080 Y-2.875
G0 Z1.0
G0 X-10.080 Y-2.875
G0 Z0.0
G0 X-7.080 Y-2.875
G0 Z1.0
G0 X-4.080 Y-2.875
G0 Z0.0
G0 X-1.080 Y-2.875
G0 Z1.0
G0 X1.920 Y-2.875
G0 Z0.0
G0 X4.920 Y-2.875
G0 Z1.0
G0 X7.920 Y-2.875
G0 Z0.0
G0 X10.920 Y-2.875
G0 Z1.0
G0 X13.920 Y-2.875
G0 Z0.0
G0 X16.920 Y-2.875
G0 Z1.0
G0 X18.137 Y-2.875
G0 Z0.0
G0 X17.988 Y-2.625
G0 Z1.0
G0 X17.670 Y-2.625
G0 Z0.0
G0 X14.670 Y-2.625
G0 Z1.0
G0 X11.670 Y-2.625
G0 Z0.0
G0 X8.670 Y-2.625
G0 Z1.0
G0 X5.670 Y-2.625
G0 Z0.0
G0 X2.670 Y-2.625
G0 Z1.0
G0 X-0.330 Y-2.625
G0 Z0.0
G0 X-3.330 Y-2.625
G0 Z1.0
G0 X-6.330 Y-2.625
G0 Z0.0
G0 X-9.330 Y-2.625
G0 Z1.0
G0 X-12.330 Y-2.625
G0 Z0.0
G0 X-15.330 Y-2.625
G0 Z1.0
G0 X-18.330 Y-2.625
G0 Z0.0
G0 X-20.205 Y-2.625
G0 Z1.0
G0 X-20.782 Y-2.375
G0 Z0.0
G0 X-20.580 Y-2.375
G0 Z1.0
G0 X-17.580 Y-2.375
G0 Z0.0
G0 X-14.580 Y-2.375
G0 Z1.0
G0 X-11.580 Y-2.375
G0 Z0.0
G0 X-8.580 Y-2.375
G0 Z1.0
G0 X-5.580 Y-2.375
G0 Z0.0
G0 X-2.580 Y-2.375
G0 Z1.0
G0 X0.420 Y-2.375
G0 Z0.0
G0 X3.420 Y-2.375
G0 Z1.0
G0 X6.420 Y-2.375
G0 Z0.0
G0 X9.420 Y-2.375
G0 Z1.0
G0 X12.420 Y-2.375
G0 Z0.0
G0 X15.420 Y-2.375
G0 Z1.0
G0 X17.840 Y-2.375
G0 Z0.0
G0 X17.691 Y-2.125
G0 Z1.0
G0 X16.170 Y-2.125
G0 Z0.0
G0 X13.170 Y-2.125
G0 Z1.0
G0 X10.170 Y-2.125
G0 Z0.0
G0 X7.170 Y-2.125
G0 Z1.0
G0 X4.170 Y-2.125
G0 Z0.0
G0 X1.170 Y-2.125
G0 Z1.0
G0 X-1.830 Y-2.125
G0 Z0.0
G0 X-4.830 Y-2.125
G0 Z1.0
G0 X-7.830 Y-2.125
G0 Z0.0
G0 X-10.830 Y-2.125
G0 Z1.0
G0 X-13.830 Y-2.125
G0 Z0.0
G0 X-16.830 Y-2.125
G0 Z1.0
G0 X-19.830 Y-2.125
G0 Z0.0
G0 X-21.359 Y-2.125
G0 Z1.0
G0 X-21.935 Y-1.875
G0 Z0.0
G0 X-19.080 Y-1.875
G0 Z1.0
G0 X-16.080 Y-1.875
G0 Z0.0
G0 X-13.080 Y-1.875
G0 Z1.0
G0 X-10.080 Y-1.875
G0 Z0.0
G0 X-7.080 Y-1.875
G0 Z1.0
G0 X-4.080 Y-1.875
G0 Z0.0
G0 X-1.080 Y-1.875
G0 Z1.0
G0 X1.920 Y-1.875
G0 Z0.0
G0 X4.920 Y-1.875
G0 Z1.0
G0 X7.920 Y-1.875
G0 Z0.0
G0 X10.920 Y-1.875
G0 Z1.0
G0 X13.920 Y-1.875
G0 Z0.0
G0 X16.920 Y-1.875
G0 Z1.0
G0 X17.543 Y-1.875
G0 Z0.0
G0 X17.394 Y-1.625
G0 Z1.0
G0 X14.670 Y-1.625
G0 Z0.0
G0 X11.670 Y-1.625
G0 Z1.0
G0 X8.670 Y-1.625
G0 Z0.0
G0 X5.670 Y-1.625
G0 Z1.0
G0 X2.670 Y-1.625
G0 Z0.0
G0 X-0.330 Y-1.625
G0 Z1.0
G0 X-3.330 Y-1.625
G0 Z0.0
G0 X-6.330 Y-1.625
G0 Z1.0
G0 X-9.330 Y-1.625
G0 Z0.0
G0 X-12.330 Y-1.625
G0 Z1.0
G0 X-15.330 Y-1.625
G0 Z0.0
G0 X-18.330 Y-1.625
G0 Z1.0
G0 X-21.330 Y-1.625
G0 Z0.0
G0 X-22.512 Y-1.625
G0 Z1.0
G0 X-23.089 Y-1.375
G0 Z0.0
G0 X-20.580 Y-1.375
G0 Z1.0
G0 X-17.580 Y-1.375
G0 Z0.0
G0 X-14.580 Y-1.375
G0 Z1.0
G0 X-11.580 Y-1.375
G0 Z0.0
G0 X-8.580 Y-1.375
G0 Z1.0
G0 X-5.580 Y-1.375
G0 Z0.0
G0 X-2.580 Y-1.375
G0 Z1.0
G0 X0.420 Y-1.375
G0 Z0.0
G0 X3.420 Y-1.375
G0 Z1.0
G0 X6.420 Y-1.375
G0 Z0.0
G0 X9.420 Y-1.375
G0 Z1.0
G0 X12.420 Y-1.375
G0 Z0.0
G0 X15.420 Y-1.375
G0 Z1.0
G0 X17.246 Y-1.375
G0 Z0.0
G0 X17.097 Y-1.125
G0 Z1.0
G0 X16.170 Y-1.125
G0 Z0.0
G0 X13.170 Y-1.125
G0 Z1.0
G0 X10.170 Y-1.125
G0 Z0.0
G0 X7.170 Y-1.125
G0 Z1.0
G0 X4.170 Y-1.125
G0 Z0.0
G0 X1.170 Y-1.125
G0 Z1.0
G0 X-1.830 Y-1.125
G0 Z0.0
G0 X-4.830 Y-1.125
G0 Z1.0
G0 X-7.830 Y-1.125
G0 Z0.0
G0 X-10.830 Y-1.125
G0 Z1.0
G0 X-13.830 Y-1.125
G0 Z0.0
G0 X-16.830 Y-1.125
G0 Z1.0
G0 X-19.830 Y-1.125
G0 Z0.0
G0 X-22.830 Y-1.125
G0 Z1.0
G0 X-23.665 Y-1.125
G0 Z0.0
G0 X-24.242 Y-0.875
G0 Z1.0
G0 X-22.080 Y-0.875
G0 Z0.0
G0 X-19.080 Y-0.875
G0 Z1.0
G0 X-16.080 Y-0.875
G0 Z0.0
G0 X-13.080 Y-0.875
G0 Z1.0
G0 X-10.080 Y-0.875
G0 Z0.0
G0 X-7.080 Y-0.875
G0 Z1.0
G0 X-4.080 Y-0.875
G0 Z0.0
G0 X-1.080 Y-0.875
G0 Z1.0
G0 X1.920 Y-0.875
G0 Z0.0
G0 X4.920 Y-0.875
G0 Z1.0
G0 X7.920 Y-0.875
G0 Z0.0
G0 X10.920 Y-0.875
G0 Z1.0
G0 X13.920 Y-0.875
G0 Z0.0
G0 X16.920 Y-0.875
G0 Z1.0
G0 X16.800 Y-0.625
G0 Z0.0
G0 X14.670 Y-0.625
G0 Z1.0
G0 X11.670 Y-0.625
G0 Z0.0
G0 X8.670 Y-0.625
G0 Z1.0
G0 X5.670 Y-0.625
G0 Z0.0
G0 X2.670 Y-0.625
G0 Z1.0
G0 X-0.330 Y-0.625
G0 Z0.0
G0 X-3.330 Y-0.625
G0 Z1.0
G0 X-6.330 Y-0.625
G0 Z0.0
G0 X-9.330 Y-0.625
G0 Z1.0
G0 X-12.330 Y-0.625
G0 Z0.0
G0 X-15.330 Y-0.625
G0 Z1.0
G0 X-18.330 Y-0.625
G0 Z0.0
G0 X-21.330 Y-0.625
G0 Z1.0
G0 X-24.330 Y-0.625
G0 Z0.0
G0 X-24.819 Y-0.625
G0 Z1.0
G0 X-24.815 Y-0.375
G0 Z0.0
G0 X-23.580 Y-0.375
G0 Z1.0
G0 X-20.580 Y-0.375
G0 Z0.0
G0 X-17.580 Y-0.375
G0 Z1.0
G0 X-14.580 Y-0.375
G0 Z0.0
G0 X-11.580 Y-0.375
G0 Z1.0
G0 X-8.580 Y-0.375
G0 Z0.0
G0 X-5.580 Y-0.375
G0 Z1.0
G0 X-2.580 Y-0.375
G0 Z0.0
G0 X0.420 Y-0.375
G0 Z1.0
G0 X3.420 Y-0.375
G0 Z0.0
G0 X6.420 Y-0.375
G0 Z1.0
G0 X9.420 Y-0.375
G0 Z0.0
G0 X12.420 Y-0.375
G0 Z1.0
G0 X15.420 Y-0.375
G0 Z0.0
G0 X16.652 Y-0.375
G0 Z1.0
G0 X16.503 Y-0.125
G0 Z0.0
G0 X16.170 Y-0.125
G0 Z1.0
G0 X13.170 Y-0.125
G0 Z0.0
G0 X10.170 Y-0.125
G0 Z1.0
G0 X7.170 Y-0.125
G0 Z0.0
G0 X4.170 Y-0.125
G0 Z1.0
G0 X1.170 Y-0.125
G0 Z0.0
G0 X-1.830 Y-0.125
G0 Z1.0
G0 X-4.830 Y-0.125
G0 Z0.0
G0 X-7.830 Y-0.125
G0 Z1.0
G0 X-10.830 Y-0.125
G0 Z0.0
G0 X-13.830 Y-0.125
G0 Z1.0
G0 X-16.830 Y-0.125
G0 Z0.0
G0 X-19.830 Y-0.125
G0 Z1.0
G0 X-22.830 Y-0.125
G0 Z0.0
G0 X-24.332 Y-0.125
G0 Z1.0
G0 X-23.849 Y0.125
G0 Z0.0
G0 X-22.080 Y0.125
G0 Z1.0
G0 X-19.080 Y0.125
G0 Z0.0
G0 X-16.080 Y0.125
G0 Z1.0
G0 X-13.080 Y0.125
G0 Z0.0
G0 X-10.080 Y0.125
G0 Z1.0
G0 X-7.080 Y0.125
G0 Z0.0
G0 X-4.080 Y0.125
G0 Z1.0
G0 X-1.080 Y0.125
G0 Z0.0
G0 X1.920 Y0.125
G0 Z1.0
G0 X4.920 Y0.125
G0 Z0.0
G0 X7.920 Y0.125
G0 Z1.0
G0 X10.920 Y0.125
G0 Z0.0
G0 X13.920 Y0.125
G0 Z1.0
G0 X16.355 Y0.125
G0 Z0.0
G0 X16.206 Y0.375
G0 Z1.0
G0 X14.670 Y0.375
G0 Z0.0
G0 X11.670 Y0.375
G0 Z1.0
G0 X8.670 Y0.375
G0 Z0.0
G0 X5.670 Y0.375
G0 Z1.0
G0 X2.670 Y0.375
G0 Z0.0
G0 X-0.330 Y0.375
G0 Z1.0
G0 X-3.330 Y0.375
G0 Z0.0
G0 X-6.330 Y0.375
G0 Z1.0
G0 X-9.330 Y0.375
G0 Z0.0
G0 X-12.330 Y0.375
G0 Z1.0
G0 X-15.330 Y0.375
G0 Z0.0
G0 X-18.330 Y0.375
G0 Z1.0
G0 X-21.330 Y0.375
G0 Z0.0
G0 X-23.366 Y0.375
G0 Z1.0
G0 X-22.883 Y0.625
G0 Z0.0
G0 X-20.580 Y0.625
G0 Z1.0
G0 X-17.580 Y0.625
G0 Z0.0
G0 X-14.580 Y0.625
G0 Z1.0
G0 X-11.580 Y0.625
G0 Z0.0
G0 X-8.580 Y0.625
G0 Z1.0
G0 X-5.580 Y0.625
G0 Z0.0
G0 X-2.580 Y0.625
G0 Z1.0
G0 X0.420 Y0.625
G0 Z0.0
G0 X3.420 Y0.625
G0 Z1.0
G0 X6.420 Y0.625
G0 Z0.0
G0 X9.420 Y0.625
G0 Z1.0
G0 X12.420 Y0.625
G0 Z0.0
G0 X15.420 Y0.625
G0 Z1.0
G0 X16.058 Y0.625
G0 Z0.0
G0 X15.914 Y0.875
G0 Z1.0
G0 X13.170 Y0.875
G0 Z0.0
G0 X10.170 Y0.875
G0 Z1.0
G0 X7.170 Y0.875
G0 Z0.0
G0 X4.170 Y0.875
G0 Z1.0
G0 X1.170 Y0.875
G0 Z0.0
G0 X-1.830 Y0.875
G0 Z1.0
G0 X-4.830 Y0.875
G0 Z0.0
G0 X-7.830 Y0.875
G0 Z1.0
G0 X-10.830 Y0.875
G0 Z0.0
G0 X-13.830 Y0.875
G0 Z1.0
G0 X-16.830 Y0.875
G0 Z0.0
G0 X-19.830 Y0.875
G0 Z1.0
G0 X-22.399 Y0.875
G0 Z0.0
G0 X-21.916 Y1.125
G0 Z1.0
G0 X-19.080 Y1.125
G0 Z0.0
G0 X-16.080 Y1.125
G0 Z1.0
G0 X-13.080 Y1.125
G0 Z0.0
G0 X-10.080 Y1.125
G0 Z1.0
G0 X-7.080 Y1.125
G0 Z0.0
G0 X-4.080 Y1.125
G0 Z1.0
G0 X-1.080 Y1.125
G0 Z0.0
G0 X1.920 Y1.125
G0 Z1.0
G0 X4.920 Y1.125
G0 Z0.0
G0 X7.920 Y1.125
G0 Z1.0
G0 X10.920 Y1.125
G0 Z0.0
G0 X13.920 Y1.125
G0 Z1.0
G0 X16.039 Y1.125
G0 Z0.0
G0 X16.165 Y1.375
G0 Z1.0
G0 X14.670 Y1.375
G0 Z0.0
G0 X11.670 Y1.375
G0 Z1.0
G0 X8.670 Y1.375
G0 Z0.0
G0 X5.670 Y1.375
G0 Z1.0
G0 X2.670 Y1.375
G0 Z0.0
G0 X-0.330 Y1.375
G0 Z1.0
G0 X-3.330 Y1.375
G0 Z0.0
G0 X-6.330 Y1.375
G0 Z1.0
G0 X-9.330 Y1.375
G0 Z0.0
G0 X-12.330 Y1.375
G0 Z1.0
G0 X-15.330 Y1.375
G0 Z0.0
G0 X-18.330 Y1.375
G0 Z1.0
G0 X-21.330 Y1.375
G0 Z0.0
G0 X-21.433 Y1.375
G0 Z1.0
G0 X-20.950 Y1.625
G0 Z0.0
G0 X-20.580 Y1.625
G0 Z1.0
G0 X-17.580 Y1.625
G0 Z0.0
G0 X-14.580 Y1.625
G0 Z1.0
G0 X-11.580 Y1.625
G0 Z0.0
G0 X-8.580 Y1.625
G0 Z1.0
G0 X-5.580 Y1.625
G0 Z0.0
G0 X-2.580 Y1.625
G0 Z1.0
G0 X0.420 Y1.625
G0 Z0.0
G0 X3.420 Y1.625
G0 Z1.0
G0 X6.420 Y1.625
G0 Z0.0
G0 X9.420 Y1.625
G0 Z1.0
G0 X12.420 Y1.625
G0 Z0.0
G0 X15.420 Y1.625
G0 Z1.0
G0 X16.290 Y1.625
G0 Z0.0
G0 X16.415 Y1.875
G0 Z1.0
G0 X16.170 Y1.875
G0 Z0.0
G0 X13.170 Y1.875
G0 Z1.0
G0 X10.170 Y1.875
G0 Z0.0
G0 X7.170 Y1.875
G0 Z1.0
G0 X4.170 Y1.875
G0 Z0.0
G0 X1.170 Y1.875
G0 Z1.0
G0 X-1.830 Y1.875
G0 Z0.0
G0 X-4.830 Y1.875
G0 Z1.0
G0 X-7.830 Y1.875
G0 Z0.0
G0 X-10.830 Y1.875
G0 Z1.0
G0 X-13.830 Y1.875
G0 Z0.0
G0 X-16.830 Y1.875
G0 Z1.0
G0 X-19.830 Y1.875
G0 Z0.0
G0 X-20.467 Y1.875
G0 Z1.0
G0 X-19.984 Y2.125
G0 Z0.0
G0 X-19.080 Y2.125
G0 Z1.0
G0 X-16.080 Y2.125
G0 Z0.0
G0 X-13.080 Y2.125
G0 Z1.0
G0 X-10.080 Y2.125
G0 Z0.0
G0 X-7.080 Y2.125
G0 Z1.0
G0 X-4.080 Y2.125
G0 Z0.0
G0 X-1.080 Y2.125
G0 Z1.0
G0 X1.920 Y2.125
G0 Z0.0
G0 X4.920 Y2.125
G0 Z1.0
G0 X7.920 Y2.125
G0 Z0.0
G0 X10.920 Y2.125
G0 Z1.0
G0 X13.920 Y2.125
G0 Z0.0
G0 X16.540 Y2.125
G0 Z1.0
G0 X16.666 Y2.375
G0 Z0.0
G0 X14.670 Y2.375
G0 Z1.0
G0 X11.670 Y2.375
G0 Z0.0
G0 X8.670 Y2.375
G0 Z1.0
G0 X5.670 Y2.375
G0 Z0.0
G0 X2.670 Y2.375
G0 Z1.0
G0 X-0.330 Y2.375
G0 Z0.0
G0 X-3.330 Y2.375
G0 Z1.0
G0 X-6.330 Y2.375
G0 Z0.0
G0 X-9.330 Y2.375
G0 Z1.0
G0 X-12.330 Y2.375
G0 Z0.0
G0 X-15.330 Y2.375
G0 Z1.0
G0 X-18.330 Y2.375
G0 Z0.0
G0 X-19.500 Y2.375
G0 Z1.0
G0 X-19.017 Y2.625
G0 Z0.0
G0 X-17.580 Y2.625
G0 Z1.0
G0 X-14.580 Y2.625
G0 Z0.0
G0 X-11.580 Y2.625
G0 Z1.0
G0 X-8.580 Y2.625
G0 Z0.0
G0 X-5.580 Y2.625
G0 Z1.0
G0 X-2.580 Y2.625
G0 Z0.0
G0 X0.420 Y2.625
G0 Z1.0
G0 X3.420 Y2.625
G0 Z0.0
G0 X6.420 Y2.625
G0 Z1.0
G0 X9.420 Y2.625
G0 Z0.0
G0 X12.420 Y2.625
G0 Z1.0
G0 X15.420 Y2.625
G0 Z0.0
G0 X16.791 Y2.625
G0 Z1.0
G0 X16.916 Y2.875
G0 Z0.0
G0 X16.170 Y2.875
G0 Z1.0
G0 X13.170 Y2.875
G0 Z0.0
G0 X10.170 Y2.875
G0 Z1.0
G0 X7.170 Y2.875
G0 Z0.0
G0 X4.170 Y2.875
G0 Z1.0
G0 X1.170 Y2.875
G0 Z0.0
G0 X-1.830 Y2.875
G0 Z1.0
G0 X-4.830 Y2.875
G0 Z0.0
G0 X-7.830 Y2.875
G0 Z1.0
G0 X-10.830 Y2.875
G0 Z0.0
G0 X-13.830 Y2.875
G0 Z1.0
G0 X-16.830 Y2.875
G0 Z0.0
G0 X-18.534 Y2.875
G0 Z1.0
G0 X-18.051 Y3.125
G0 Z0.0
G0 X-16.080 Y3.125
G0 Z1.0
G0 X-13.080 Y3.125
G0 Z0.0
G0 X-10.080 Y3.125
G0 Z1.0
G0 X-7.080 Y3.125
G0 Z0.0
G0 X-4.080 Y3.125
G0 Z1.0
G0 X-1.080 Y3.125
G0 Z0.0
G0 X1.920 Y3.125
G0 Z1.0
G0 X4.920 Y3.125
G0 Z0.0
G0 X7.920 Y3.125
G0 Z1.0
G0 X10.920 Y3.125
G0 Z0.0
G0 X13.920 Y3.125
G0 Z1.0
G0 X16.920 Y3.125
G0 Z0.0
G0 X17.041 Y3.125
G0 Z1.0
G0 X17.166 Y3.375
G0 Z0.0
G0 X14.670 Y3.375
G0 Z1.0
G0 X11.670 Y3.375
G0 Z0.0
G0 X8.670 Y3.375
G0 Z1.0
G0 X5.670 Y3.375
G0 Z0.0
G0 X2.670 Y3.375
G0 Z1.0
G0 X-0.330 Y3.375
G0 Z0.0
G0 X-3.330 Y3.375
G0 Z1.0
G0 X-6.330 Y3.375
G0 Z0.0
G0 X-9.330 Y3.375
G0 Z1.0
G0 X-12.330 Y3.375
G0 Z0.0
G0 X-15.330 Y3.375
G0 Z1.0
G0 X-17.568 Y3.375
G0 Z0.0
G0 X-17.084 Y3.625
G0 Z1.0
G0 X-14.580 Y3.625
G0 Z0.0
G0 X-11.580 Y3.625
G0 Z1.0
G0 X-8.580 Y3.625
G0 Z0.0
G0 X-5.580 Y3.625
G0 Z1.0
G0 X-2.580 Y3.625
G0 Z0.0
G0 X0.420 Y3.625
G0 Z1.0
G0 X3.420 Y3.625
G0 Z0.0
G0 X6.420 Y3.625
G0 Z1.0
G0 X9.420 Y3.625
G0 Z0.0
G0 X12.420 Y3.625
G0 Z1.0
G0 X15.420 Y3.625
G0 Z0.0
G0 X17.292 Y3.625
G0 Z1.0
G0 X17.417 Y3.875
G0 Z0.0
G0 X16.170 Y3.875
G0 Z1.0
G0 X13.170 Y3.875
G0 Z0.0
G0 X10.170 Y3.875
G0 Z1.0
G0 X7.170 Y3.875
G0 Z0.0
G0 X4.170 Y3.875
G0 Z1.0
G0 X1.170 Y3.875
G0 Z0.0
G0 X-1.830 Y3.875
G0 Z1.0
G0 X-4.830 Y3.875
G0 Z0.0
G0 X-7.830 Y3.875
G0 Z1.0
G0 X-10.830 Y3.875
G0 Z0.0
G0 X-13.830 Y3.875
G0 Z1.0
G0 X-16.601 Y3.875
G0 Z0.0
G0 X-16.118 Y4.125
G0 Z1.0
G0 X-13.080 Y4.125
G0 Z0.0
G0 X-10.080 Y4.125
G0 Z1.0
G0 X-7.080 Y4.125
G0 Z0.0
G0 X-4.080 Y4.125
G0 Z1.0
G0 X-1.080 Y4.125
G0 Z0.0
G0 X1.920 Y4.125
G0 Z1.0
G0 X4.920 Y4.125
G0 Z0.0
G0 X7.920 Y4.125
G0 Z1.0
G0 X10.920 Y4.125
G0 Z0.0
G0 X13.920 Y4.125
G0 Z1.0
G0 X16.920 Y4.125
G0 Z0.0
G0 X17.542 Y4.125
G0 Z1.0
G0 X17.667 Y4.375
G0 Z0.0
G0 X14.670 Y4.375
G0 Z1.0
G0 X11.670 Y4.375
G0 Z0.0
G0 X8.670 Y4.375
G0 Z1.0
G0 X5.670 Y4.375
G0 Z0.0
G0 X2.670 Y4.375
G0 Z1.0
G0 X-0.330 Y4.375
G0 Z0.0
G0 X-3.330 Y4.375
G0 Z1.0
G0 X-6.330 Y4.375
G0 Z0.0
G0 X-9.330 Y4.375
G0 Z1.0
G0 X-12.330 Y4.375
G0 Z0.0
G0 X-15.330 Y4.375
G0 Z1.0
G0 X-15.635 Y4.375
G0 Z0.0
G0 X-15.152 Y4.625
G0 Z1.0
G0 X-14.580 Y4.625
G0 Z0.0
G0 X-11.580 Y4.625
G0 Z1.0
G0 X-8.580 Y4.625
G0 Z0.0
G0 X-5.580 Y4.625
G0 Z1.0
G0 X-2.580 Y4.625
G0 Z0.0
G0 X0.420 Y4.625
G0 Z1.0
G0 X3.420 Y4.625
G0 Z0.0
G0 X6.420 Y4.625
G0 Z1.0
G0 X9.420 Y4.625
G0 Z0.0
G0 X12.420 Y4.625
G0 Z1.0
G0 X15.420 Y4.625
G0 Z0.0
G0 X17.793 Y4.625
G0 Z1.0
G0 X17.918 Y4.875
G0 Z0.0
G0 X16.170 Y4.875
G0 Z1.0
G0 X13.170 Y4.875
G0 Z0.0
G0 X10.170 Y4.875
G0 Z1.0
G0 X7.170 Y4.875
G0 Z0.0
G0 X4.170 Y4.875
G0 Z1.0
G0 X1.170 Y4.875
G0 Z0.0
G0 X-1.830 Y4.875
G0 Z1.0
G0 X-4.830 Y4.875
G0 Z0.0
G0 X-7.830 Y4.875
G0 Z1.0
G0 X-10.830 Y4.875
G0 Z0.0
G0 X-13.830 Y4.875
G0 Z1.0
G0 X-14.669 Y4.875
G0 Z0.0
G0 X-14.185 Y5.125
G0 Z1.0
G0 X-13.080 Y5.125
G0 Z0.0
G0 X-10.080 Y5.125
G0 Z1.0
G0 X-7.080 Y5.125
G0 Z0.0
G0 X-4.080 Y5.125
G0 Z1.0
G0 X-1.080 Y5.125
G0 Z0.0
G0 X1.920 Y5.125
G0 Z1.0
G0 X4.920 Y5.125
G0 Z0.0
G0 X7.920 Y5.125
G0 Z1.0
G0 X10.920 Y5.125
G0 Z0.0
G0 X13.920 Y5.125
G0 Z1.0
G0 X16.920 Y5.125
G0 Z0.0
G0 X18.043 Y5.125
G0 Z1.0
G0 X18.168 Y5.375
G0 Z0.0
G0 X17.670 Y5.375
G0 Z1.0
G0 X14.670 Y5.375
G0 Z0.0
G0 X11.670 Y5.375
G0 Z1.0
G0 X8.670 Y5.375
G0 Z0.0
G0 X5.670 Y5.375
G0 Z1.0
G0 X2.670 Y5.375
G0 Z0.0
G0 X-0.330 Y5.375
G0 Z1.0
G0 X-3.330 Y5.375
G0 Z0.0
G0 X-6.330 Y5.375
G0 Z1.0
G0 X-9.330 Y5.375
G0 Z0.0
G0 X-12.330 Y5.375
G0 Z1.0
G0 X-13.702 Y5.375
G0 Z0.0
G0 X-13.219 Y5.625
G0 Z1.0
G0 X-11.580 Y5.625
G0 Z0.0
G0 X-8.580 Y5.625
G0 Z1.0
G0 X-5.580 Y5.625
G0 Z0.0
G0 X-2.580 Y5.625
G0 Z1.0
G0 X0.420 Y5.625
G0 Z0.0
G0 X3.420 Y5.625
G0 Z1.0
G0 X6.420 Y5.625
G0 Z0.0
G0 X9.420 Y5.625
G0 Z1.0
G0 X12.420 Y5.625
G0 Z0.0
G0 X15.420 Y5.625
G0 Z1.0
G0 X18.293 Y5.625
G0 Z0.0
G0 X18.419 Y5.875
G0 Z1.0
G0 X16.170 Y5.875
G0 Z0.0
G0 X13.170 Y5.875
G0 Z1.0
G0 X10.170 Y5.875
G0 Z0.0
G0 X7.170 Y5.875
G0 Z1.0
G0 X4.170 Y5.875
G0 Z0.0
G0 X1.170 Y5.875
G0 Z1.0
G0 X-1.830 Y5.875
G0 Z0.0
G0 X-4.830 Y5.875
G0 Z1.0
G0 X-7.830 Y5.875
G0 Z0.0
G0 X-10.830 Y5.875
G0 Z1.0
G0 X-12.736 Y5.875
G0 Z0.0
G0 X-12.253 Y6.125
G0 Z1.0
G0 X-10.080 Y6.125
G0 Z0.0
G0 X-7.080 Y6.125
G0 Z1.0
G0 X-4.080 Y6.125
G0 Z0.0
G0 X-1.080 Y6.125
G0 Z1.0
G0 X1.920 Y6.125
G0 Z0.0
G0 X4.920 Y6.125
G0 Z1.0
G0 X7.920 Y6.125
G0 Z0.0
G0 X10.920 Y6.125
G0 Z1.0
G0 X13.920 Y6.125
G0 Z0.0
G0 X16.920 Y6.125
G0 Z1.0
G0 X18.544 Y6.125
G0 Z0.0
G0 X18.669 Y6.375
G0 Z1.0
G0 X17.670 Y6.375
G0 Z0.0
G0 X14.670 Y6.375
G0 Z1.0
G0 X11.670 Y6.375
G0 Z0.0
G0 X8.670 Y6.375
G0 Z1.0
G0 X5.670 Y6.375
G0 Z0.0
G0 X2.670 Y6.375
G0 Z1.0
G0 X-0.330 Y6.375
G0 Z0.0
G0 X-3.330 Y6.375
G0 Z1.0
G0 X-6.330 Y6.375
G0 Z0.0
G0 X-9.330 Y6.375
G0 Z1.0
G0 X-11.769 Y6.375
G0 Z0.0
G0 X-11.286 Y6.625
G0 Z1.0
G0 X-8.580 Y6.625
G0 Z0.0
G0 X-5.580 Y6.625
G0 Z1.0
G0 X-2.580 Y6.625
G0 Z0.0
G0 X0.420 Y6.625
G0 Z1.0
G0 X3.420 Y6.625
G0 Z0.0
G0 X6.420 Y6.625
G0 Z1.0
G0 X9.420 Y6.625
G0 Z0.0
G0 X12.420 Y6.625
G0 Z1.0
G0 X15.420 Y6.625
G0 Z0.0
G0 X18.420 Y6.625
G0 Z1.0
G0 X18.794 Y6.625
G0 Z0.0
G0 X18.920 Y6.875
G0 Z1.0
G0 X16.170 Y6.875
G0 Z0.0
G0 X13.170 Y6.875
G0 Z1.0
G0 X10.170 Y6.875
G0 Z0.0
G0 X7.170 Y6.875
G0 Z1.0
G0 X4.170 Y6.875
G0 Z0.0
G0 X1.170 Y6.875
G0 Z1.0
G0 X-1.830 Y6.875
G0 Z0.0
G0 X-4.830 Y6.875
G0 Z1.0
G0 X-7.830 Y6.875
G0 Z0.0
G0 X-10.803 Y6.875
G0 Z1.0
G0 X-10.320 Y7.125
G0 Z0.0
G0 X-10.080 Y7.125
G0 Z1.0
G0 X-7.080 Y7.125
G0 Z0.0
G0 X-4.080 Y7.125
G0 Z1.0
G0 X-1.080 Y7.125
G0 Z0.0
G0 X1.920 Y7.125
G0 Z1.0
G0 X4.920 Y7.125
G0 Z0.0
G0 X7.920 Y7.125
G0 Z1.0
G0 X10.920 Y7.125
G0 Z0.0
G0 X13.920 Y7.125
G0 Z1.0
G0 X16.920 Y7.125
G0 Z0.0
G0 X19.045 Y7.125
G0 Z1.0
G0 X19.170 Y7.375
G0 Z0.0
G0 X17.670 Y7.375
G0 Z1.0
G0 X14.670 Y7.375
G0 Z0.0
G0 X11.670 Y7.375
G0 Z1.0
G0 X8.670 Y7.375
G0 Z0.0
G0 X5.670 Y7.375
G0 Z1.0
G0 X2.670 Y7.375
G0 Z0.0
G0 X-0.330 Y7.375
G0 Z1.0
G0 X-3.330 Y7.375
G0 Z0.0
G0 X-6.330 Y7.375
G0 Z1.0
G0 X-9.330 Y7.375
G0 Z0.0
G0 X-9.837 Y7.375
G0 Z1.0
G0 X-9.353 Y7.625
G0 Z0.0
G0 X-8.580 Y7.625
G0 Z1.0
G0 X-5.580 Y7.625
G0 Z0.0
G0 X-2.580 Y7.625
G0 Z1.0
G0 X0.420 Y7.625
G0 Z0.0
G0 X3.420 Y7.625
G0 Z1.0
G0 X6.420 Y7.625
G0 Z0.0
G0 X9.420 Y7.625
G0 Z1.0
G0 X12.420 Y7.625
G0 Z0.0
G0 X15.420 Y7.625
G0 Z1.0
G0 X18.420 Y7.625
G0 Z0.0
G0 X19.295 Y7.625
G0 Z1.0
G0 X19.420 Y7.875
G0 Z0.0
G0 X19.170 Y7.875
G0 Z1.0
G0 X16.170 Y7.875
G0 Z0.0
G0 X13.170 Y7.875
G0 Z1.0
G0 X10.170 Y7.875
G0 Z0.0
G0 X7.170 Y7.875
G0 Z1.0
G0 X4.170 Y7.875
G0 Z0.0
G0 X1.170 Y7.875
G0 Z1.0
G0 X-1.830 Y7.875
G0 Z0.0
G0 X-4.830 Y7.875
G0 Z1.0
G0 X-7.830 Y7.875
G0 Z0.0
G0 X-9.075 Y7.875
G0 Z1.0
G0 X-9.047 Y8.125
G0 Z0.0
G0 X-7.080 Y8.125
G0 Z1.0
G0 X-4.080 Y8.125
G0 Z0.0
G0 X-1.080 Y8.125
G0 Z1.0
G0 X1.920 Y8.125
G0 Z0.0
G0 X4.920 Y8.125
G0 Z1.0
G0 X7.920 Y8.125
G0 Z0.0
G0 X10.920 Y8.125
G0 Z1.0
G0 X13.920 Y8.125
G0 Z0.0
G0 X16.920 Y8.125
G0 Z1.0
G0 X19.546 Y8.125
G0 Z0.0
G0 X19.671 Y8.375
G0 Z1.0
G0 X17.670 Y8.375
G0 Z0.0
G0 X14.670 Y8.375
G0 Z1.0
G0 X11.670 Y8.375
G0 Z0.0
G0 X8.670 Y8.375
G0 Z1.0
G0 X5.670 Y8.375
G0 Z0.0
G0 X2.670 Y8.375
G0 Z1.0
G0 X-0.330 Y8.375
G0 Z0.0
G0 X-3.330 Y8.375
G0 Z1.0
G0 X-6.330 Y8.375
G0 Z0.0
G0 X-9.018 Y8.375
G0 Z1.0
G0 X-8.990 Y8.625
G0 Z0.0
G0 X-8.580 Y8.625
G0 Z1.0
G0 X-5.580 Y8.625
G0 Z0.0
G0 X-2.580 Y8.625
G0 Z1.0
G0 X0.420 Y8.625
G0 Z0.0
G0 X3.420 Y8.625
G0 Z1.0
G0 X6.420 Y8.625
G0 Z0.0
G0 X9.420 Y8.625
G0 Z1.0
G0 X12.420 Y8.625
G0 Z0.0
G0 X15.420 Y8.625
G0 Z1.0
G0 X18.420 Y8.625
G0 Z0.0
G0 X19.796 Y8.625
G0 Z1.0
G0 X19.921 Y8.875
G0 Z0.0
G0 X19.170 Y8.875
G0 Z1.0
G0 X16.170 Y8.875
G0 Z0.0
G0 X13.170 Y8.875
G0 Z1.0
G0 X10.170 Y8.875
G0 Z0.0
G0 X7.170 Y8.875
G0 Z1.0
G0 X4.170 Y8.875
G0 Z0.0
G0 X1.170 Y8.875
G0 Z1.0
G0 X-1.830 Y8.875
G0 Z0.0
G0 X-4.830 Y8.875
G0 Z1.0
G0 X-7.830 Y8.875
G0 Z0.0
G0 X-8.961 Y8.875
G0 Z1.0
G0 X-8.933 Y9.125
G0 Z0.0
G0 X-7.080 Y9.125
G0 Z1.0
G0 X-4.080 Y9.125
G0 Z0.0
G0 X-1.080 Y9.125
G0 Z1.0
G0 X1.920 Y9.125
G0 Z0.0
G0 X4.920 Y9.125
G0 Z1.0
G0 X7.920 Y9.125
G0 Z0.0
G0 X10.920 Y9.125
G0 Z1.0
G0 X13.920 Y9.125
G0 Z0.0
G0 X16.920 Y9.125
G0 Z1.0
G0 X19.920 Y9.125
G0 Z0.0
G0 X20.047 Y9.125
G0 Z1.0
G0 X20.172 Y9.375
G0 Z0.0
G0 X17.670 Y9.375
G0 Z1.0
G0 X14.670 Y9.375
G0 Z0.0
G0 X11.670 Y9.375
G0 Z1.0
G0 X8.670 Y9.375
G0 Z0.0
G0 X5.670 Y9.375
G0 Z1.0
G0 X2.670 Y9.375
G0 Z0.0
G0 X-0.330 Y9.375
G0 Z1.0
G0 X-3.330 Y9.375
G0 Z0.0
G0 X-6.330 Y9.375
G0 Z1.0
G0 X-8.904 Y9.375
G0 Z0.0
G0 X-8.876 Y9.625
G0 Z1.0
G0 X-8.580 Y9.625
G0 Z0.0
G0 X-5.580 Y9.625
G0 Z1.0
G0 X-2.580 Y9.625
G0 Z0.0
G0 X0.420 Y9.625
G0 Z1.0
G0 X3.420 Y9.625
G0 Z0.0
G0 X6.420 Y9.625
G0 Z1.0
G0 X9.420 Y9.625
G0 Z0.0
G0 X12.420 Y9.625
G0 Z1.0
G0 X15.420 Y9.625
G0 Z0.0
G0 X18.420 Y9.625
G0 Z1.0
G0 X20.297 Y9.625
G0 Z0.0
G0 X20.422 Y9.875
G0 Z1.0
G0 X19.170 Y9.875
G0 Z0.0
G0 X16.170 Y9.875
G0 Z1.0
G0 X13.170 Y9.875
G0 Z0.0
G0 X10.170 Y9.875
G0 Z1.0
G0 X7.170 Y9.875
G0 Z0.0
G0 X4.170 Y9.875
G0 Z1.0
G0 X1.170 Y9.875
G0 Z0.0
G0 X-1.830 Y9.875
G0 Z1.0
G0 X-4.830 Y9.875
G0 Z0.0
G0 X-7.830 Y9.875
G0 Z1.0
G0 X-8.847 Y9.875
G0 Z0.0
G0 X-8.818 Y10.125
G0 Z1.0
G0 X-7.080 Y10.125
G0 Z0.0
G0 X-4.080 Y10.125
G0 Z1.0
G0 X-1.080 Y10.125
G0 Z0.0
G0 X1.920 Y10.125
G0 Z1.0
G0 X4.920 Y10.125
G0 Z0.0
G0 X7.920 Y10.125
G0 Z1.0
G0 X10.920 Y10.125
G0 Z0.0
G0 X13.920 Y10.125
G0 Z1.0
G0 X16.920 Y10.125
G0 Z0.0
G0 X19.920 Y10.125
G0 Z1.0
G0 X20.547 Y10.125
G0 Z0.0
G0 X20.673 Y10.375
G0 Z1.0
G0 X17.670 Y10.375
G0 Z0.0
G0 X14.670 Y10.375
G0 Z1.0
G0 X11.670 Y10.375
G0 Z0.0
G0 X8.670 Y10.375
G0 Z1.0
G0 X5.670 Y10.375
G0 Z0.0
G0 X2.670 Y10.375
G0 Z1.0
G0 X-0.330 Y10.375
G0 Z0.0
G0 X-3.330 Y10.375
G0 Z1.0
G0 X-6.330 Y10.375
G0 Z0.0
G0 X-8.790 Y10.375
G0 Z1.0
G0 X-8.761 Y10.625
G0 Z0.0
G0 X-8.580 Y10.625
G0 Z1.0
G0 X-5.580 Y10.625
G0 Z0.0
G0 X-2.580 Y10.625
G0 Z1.0
G0 X0.420 Y10.625
G0 Z0.0
G0 X3.420 Y10.625
G0 Z1.0
G0 X6.420 Y10.625
G0 Z0.0
G0 X9.420 Y10.625
G0 Z1.0
G0 X12.420 Y10.625
G0 Z0.0
G0 X15.420 Y10.625
G0 Z1.0
G0 X18.420 Y10.625
G0 Z0.0
G0 X20.798 Y10.625
G0 Z1.0
G0 X20.923 Y10.875
G0 Z0.0
G0 X19.170 Y10.875
G0 Z1.0
G0 X16.170 Y10.875
G0 Z0.0
G0 X13.170 Y10.875
G0 Z1.0
G0 X10.170 Y10.875
G0 Z0.0
G0 X7.170 Y10.875
G0 Z1.0
G0 X4.170 Y10.875
G0 Z0.0
G0 X1.170 Y10.875
G0 Z1.0
G0 X-1.830 Y10.875
G0 Z0.0
G0 X-4.830 Y10.875
G0 Z1.0
G0 X-7.830 Y10.875
G0 Z0.0
G0 X-8.733 Y10.875
G0 Z1.0
G0 X-8.704 Y11.125
G0 Z0.0
G0 X-7.080 Y11.125
G0 Z1.0
G0 X-4.080 Y11.125
G0 Z0.0
G0 X-1.080 Y11.125
G0 Z1.0
G0 X1.920 Y11.125
G0 Z0.0
G0 X4.920 Y11.125
G0 Z1.0
G0 X7.920 Y11.125
G0 Z0.0
G0 X10.920 Y11.125
G0 Z1.0
G0 X13.920 Y11.125
G0 Z0.0
G0 X16.920 Y11.125
G0 Z1.0
G0 X19.920 Y11.125
G0 Z0.0
G0 X21.048 Y11.125
G0 Z1.0
G0 X21.173 Y11.375
G0 Z0.0
G0 X20.670 Y11.375
G0 Z1.0
G0 X17.670 Y11.375
G0 Z0.0
G0 X14.670 Y11.375
G0 Z1.0
G0 X11.670 Y11.375
G0 Z0.0
G0 X8.670 Y11.375
G0 Z1.0
G0 X5.670 Y11.375
G0 Z0.0
G0 X2.670 Y11.375
G0 Z1.0
G0 X-0.330 Y11.375
G0 Z0.0
G0 X-3.330 Y11.375
G0 Z1.0
G0 X-6.330 Y11.375
G0 Z0.0
G0 X-8.676 Y11.375
G0 Z1.0
G0 X-8.647 Y11.625
G0 Z0.0
G0 X-5.580 Y11.625
G0 Z1.0
G0 X-2.580 Y11.625
G0 Z0.0
G0 X0.420 Y11.625
G0 Z1.0
G0 X3.420 Y11.625
G0 Z0.0
G0 X6.420 Y11.625
G0 Z1.0
G0 X9.420 Y11.625
G0 Z0.0
G0 X12.420 Y11.625
G0 Z1.0
G0 X15.420 Y11.625
G0 Z0.0
G0 X18.420 Y11.625
G0 Z1.0
G0 X21.299 Y11.625
G0 Z0.0
G0 X21.424 Y11.875
G0 Z1.0
G0 X19.170 Y11.875
G0 Z0.0
G0 X16.170 Y11.875
G0 Z1.0
G0 X13.170 Y11.875
G0 Z0.0
G0 X10.170 Y11.875
G0 Z1.0
G0 X7.170 Y11.875
G0 Z0.0
G0 X4.170 Y11.875
G0 Z1.0
G0 X1.170 Y11.875
G0 Z0.0
G0 X-1.830 Y11.875
G0 Z1.0
G0 X-4.830 Y11.875
G0 Z0.0
G0 X-7.830 Y11.875
G0 Z1.0
G0 X-8.619 Y11.875
G0 Z0.0
G0 X-8.590 Y12.125
G0 Z1.0
G0 X-7.080 Y12.125
G0 Z0.0
G0 X-4.080 Y12.125
G0 Z1.0
G0 X-1.080 Y12.125
G0 Z0.0
G0 X1.920 Y12.125
G0 Z1.0
G0 X4.920 Y12.125
G0 Z0.0
G0 X7.920 Y12.125
G0 Z1.0
G0 X10.920 Y12.125
G0 Z0.0
G0 X13.920 Y12.125
G0 Z1.0
G0 X16.920 Y12.125
G0 Z0.0
G0 X19.920 Y12.125
G0 Z1.0
G0 X21.549 Y12.125
G0 Z0.0
G0 X21.674 Y12.375
G0 Z1.0
G0 X20.670 Y12.375
G0 Z0.0
G0 X17.670 Y12.375
G0 Z1.0
G0 X14.670 Y12.375
G0 Z0.0
G0 X11.670 Y12.375
G0 Z1.0
G0 X8.670 Y12.375
G0 Z0.0
G0 X5.670 Y12.375
G0 Z1.0
G0 X2.670 Y12.375
G0 Z0.0
G0 X-0.330 Y12.375
G0 Z1.0
G0 X-3.330 Y12.375
G0 Z0.0
G0 X-6.330 Y12.375
G0 Z1.0
G0 X-8.562 Y12.375
G0 Z0.0
G0 X-8.533 Y12.625
G0 Z1.0
G0 X-5.580 Y12.625
G0 Z0.0
G0 X-2.580 Y12.625
G0 Z1.0
G0 X0.420 Y12.625
G0 Z0.0
G0 X3.420 Y12.625
G0 Z1.0
G0 X6.420 Y12.625
G0 Z0.0
G0 X9.420 Y12.625
G0 Z1.0
G0 X12.420 Y12.625
G0 Z0.0
G0 X15.420 Y12.625
G0 Z1.0
G0 X18.420 Y12.625
G0 Z0.0
G0 X21.420 Y12.625
G0 Z1.0
G0 X21.800 Y12.625
G0 Z0.0
G0 X21.925 Y12.875
G0 Z1.0
G0 X19.170 Y12.875
G0 Z0.0
G0 X16.170 Y12.875
G0 Z1.0
G0 X13.170 Y12.875
G0 Z0.0
G0 X10.170 Y12.875
G0 Z1.0
G0 X7.170 Y12.875
G0 Z0.0
G0 X4.170 Y12.875
G0 Z1.0
G0 X1.170 Y12.875
G0 Z0.0
G0 X-1.830 Y12.875
G0 Z1.0
G0 X-4.830 Y12.875
G0 Z0.0
G0 X-7.830 Y12.875
G0 Z1.0
G0 X-8.505 Y12.875
G0 Z0.0
G0 X-8.476 Y13.125
G0 Z1.0
G0 X-7.080 Y13.125
G0 Z0.0
G0 X-4.080 Y13.125
G0 Z1.0
G0 X-1.080 Y13.125
G0 Z0.0
G0 X1.920 Y13.125
G0 Z1.0
G0 X4.920 Y13.125
G0 Z0.0
G0 X5.936 Y13.125
G0 Z1.0
G0 X5.664 Y13.375
G0 Z0.0
G0 X2.670 Y13.375
G0 Z1.0
G0 X-0.330 Y13.375
G0 Z0.0
G0 X-3.330 Y13.375
G0 Z1.0
G0 X-6.330 Y13.375
G0 Z0.0
G0 X-8.448 Y13.375
G0 Z1.0
G0 X-8.419 Y13.625
G0 Z0.0
G0 X-5.580 Y13.625
G0 Z1.0
G0 X-2.580 Y13.625
G0 Z0.0
G0 X0.420 Y13.625
G0 Z1.0
G0 X3.420 Y13.625
G0 Z0.0
G0 X5.392 Y13.625
G0 Z1.0
G0 X5.120 Y13.875
G0 Z0.0
G0 X4.170 Y13.875
G0 Z1.0
G0 X1.170 Y13.875
G0 Z0.0
G0 X-1.830 Y13.875
G0 Z1.0
G0 X-4.830 Y13.875
G0 Z0.0
G0 X-7.830 Y13.875
G0 Z1.0
G0 X-8.391 Y13.875
G0 Z0.0
G0 X-8.362 Y14.125
G0 Z1.0
G0 X-7.080 Y14.125
G0 Z0.0
G0 X-4.080 Y14.125
G0 Z1.0
G0 X-1.080 Y14.125
G0 Z0.0
G0 X1.920 Y14.125
G0 Z1.0
G0 X4.849 Y14.125
G0 Z0.0
G0 X4.577 Y14.375
G0 Z1.0
G0 X2.670 Y14.375
G0 Z0.0
G0 X-0.330 Y14.375
G0 Z1.0
G0 X-3.330 Y14.375
G0 Z0.0
G0 X-6.330 Y14.375
G0 Z1.0
G0 X-8.334 Y14.375
G0 Z0.0
G0 X-8.305 Y14.625
G0 Z1.0
G0 X-5.580 Y14.625
G0 Z0.0
G0 X-2.580 Y14.625
G0 Z1.0
G0 X0.420 Y14.625
G0 Z0.0
G0 X3.420 Y14.625
G0 Z1.0
G0 X4.305 Y14.625
G0 Z0.0
G0 X4.034 Y14.875
G0 Z1.0
G0 X1.170 Y14.875
G0 Z0.0
G0 X-1.830 Y14.875
G0 Z1.0
G0 X-4.830 Y14.875
G0 Z0.0
G0 X-7.830 Y14.875
G0 Z1.0
G0 X-8.277 Y14.875
G0 Z0.0
G0 X-8.248 Y15.125
G0 Z1.0
G0 X-7.080 Y15.125
G0 Z0.0
G0 X-4.080 Y15.125
G0 Z1.0
G0 X-1.080 Y15.125
G0 Z0.0
G0 X1.920 Y15.125
G0 Z1.0
G0 X3.762 Y15.125
G0 Z0.0
G0 X3.490 Y15.375
G0 Z1.0
G0 X2.670 Y15.375
G0 Z0.0
G0 X-0.330 Y15.375
G0 Z1.0
G0 X-3.330 Y15.375
G0 Z0.0
G0 X-6.330 Y15.375
G0 Z1.0
G0 X-8.220 Y15.375
G0 Z0.0
G0 X-8.191 Y15.625
G0 Z1.0
G0 X-5.580 Y15.625
G0 Z0.0
G0 X-2.580 Y15.625
G0 Z1.0
G0 X0.420 Y15.625
G0 Z0.0
G0 X3.218 Y15.625
G0 Z1.0
G0 X2.947 Y15.875
G0 Z0.0
G0 X1.170 Y15.875
G0 Z1.0
G0 X-1.830 Y15.875
G0 Z0.0
G0 X-4.830 Y15.875
G0 Z1.0
G0 X-7.830 Y15.875
G0 Z0.0
G0 X-8.163 Y15.875
G0 Z1.0
G0 X-8.134 Y16.125
G0 Z0.0
G0 X-7.080 Y16.125
G0 Z1.0
G0 X-4.080 Y16.125
G0 Z0.0
G0 X-1.080 Y16.125
G0 Z1.0
G0 X1.920 Y16.125
G0 Z0.0
G0 X2.675 Y16.125
G0 Z1.0
G0 X2.403 Y16.375
G0 Z0.0
G0 X-0.330 Y16.375
G0 Z1.0
G0 X-3.330 Y16.375
G0 Z0.0
G0 X-6.330 Y16.375
G0 Z1.0
G0 X-8.106 Y16.375
G0 Z0.0
G0 X-8.077 Y16.625
G0 Z1.0
G0 X-5.580 Y16.625
G0 Z0.0
G0 X-2.580 Y16.625
G0 Z1.0
G0 X0.420 Y16.625
G0 Z0.0
G0 X2.131 Y16.625
G0 Z1.0
G0 X1.860 Y16.875
G0 Z0.0
G0 X1.170 Y16.875
G0 Z1.0
G0 X-1.830 Y16.875
G0 Z0.0
G0 X-4.830 Y16.875
G0 Z1.0
G0 X-7.830 Y16.875
G0 Z0.0
G0 X-8.049 Y16.875
G0 Z1.0
G0 X-8.020 Y17.125
G0 Z0.0
G0 X-7.080 Y17.125
G0 Z1.0
G0 X-4.080 Y17.125
G0 Z0.0
G0 X-1.080 Y17.125
G0 Z1.0
G0 X1.588 Y17.125
G0 Z0.0
G0 X1.316 Y17.375
G0 Z1.0
G0 X-0.330 Y17.375
G0 Z0.0
G0 X-3.330 Y17.375
G0 Z1.0
G0 X-6.330 Y17.375
G0 Z0.0
G0 X-7.992 Y17.375
G0 Z1.0
G0 X-7.963 Y17.625
G0 Z0.0
G0 X-5.580 Y17.625
G0 Z1.0
G0 X-2.580 Y17.625
G0 Z0.0
G0 X0.420 Y17.625
G0 Z1.0
G0 X1.044 Y17.625
G0 Z0.0
G0 X0.773 Y17.875
G0 Z1.0
G0 X-1.830 Y17.875
G0 Z0.0
G0 X-4.830 Y17.875
G0 Z1.0
G0 X-7.830 Y17.875
G0 Z0.0
G0 X-7.935 Y17.875
G0 Z1.0
G0 X-7.906 Y18.125
G0 Z0.0
G0 X-7.080 Y18.125
G0 Z1.0
G0 X-4.080 Y18.125
G0 Z0.0
G0 X-1.080 Y18.125
G0 Z1.0
G0 X0.501 Y18.125
G0 Z0.0
G0 X0.229 Y18.375
G0 Z1.0
G0 X-0.330 Y18.375
G0 Z0.0
G0 X-3.330 Y18.375
G0 Z1.0
G0 X-6.330 Y18.375
G0 Z0.0
G0 X-7.878 Y18.375
G0 Z1.0
G0 X-7.849 Y18.625
G0 Z0.0
G0 X-5.580 Y18.625
G0 Z1.0
G0 X-2.580 Y18.625
G0 Z0.0
G0 X-0.043 Y18.625
G0 Z1.0
G0 X-0.314 Y18.875
G0 Z0.0
G0 X-1.830 Y18.875
G0 Z1.0
G0 X-4.830 Y18.875
G0 Z0.0
G0 X-7.821 Y18.875
G0 Z1.0
G0 X-7.792 Y19.125
G0 Z0.0
G0 X-7.080 Y19.125
G0 Z1.0
G0 X-4.080 Y19.125
G0 Z0.0
G0 X-1.080 Y19.125
G0 Z1.0
G0 X-0.586 Y19.125
G0 Z0.0
G0 X-0.858 Y19.375
G0 Z1.0
G0 X-3.330 Y19.375
G0 Z0.0
G0 X-6.330 Y19.375
G0 Z1.0
G0 X-7.764 Y19.375
G0 Z0.0
G0 X-7.735 Y19.625
G0 Z1.0
G0 X-5.580 Y19.625
G0 Z0.0
G0 X-2.580 Y19.625
G0 Z1.0
G0 X-1.130 Y19.625
G0 Z0.0
G0 X-1.401 Y19.875
G0 Z1.0
G0 X-1.830 Y19.875
G0 Z0.0
G0 X-4.830 Y19.875
G0 Z1.0
G0 X-7.707 Y19.875
G0 Z0.0
G0 X-7.678 Y20.125
G0 Z1.0
G0 X-7.080 Y20.125
G0 Z0.0
G0 X-4.080 Y20.125
G0 Z1.0
G0 X-1.673 Y20.125
G0 Z0.0
G0 X-1.945 Y20.375
G0 Z1.0
G0 X-3.330 Y20.375
G0 Z0.0
G0 X-6.330 Y20.375
G0 Z1.0
G0 X-7.650 Y20.375
G0 Z0.0
G0 X-7.621 Y20.625
G0 Z1.0
G0 X-5.580 Y20.625
G0 Z0.0
G0 X-2.580 Y20.625
G0 Z1.0
G0 X-2.217 Y20.625
G0 Z0.0
G0 X-2.488 Y20.875
G0 Z1.0
G0 X-4.830 Y20.875
G0 Z0.0
G0 X-7.593 Y20.875
G0 Z1.0
G0 X-7.564 Y21.125
G0 Z0.0
G0 X-7.080 Y21.125
G0 Z1.0
G0 X-4.080 Y21.125
G0 Z0.0
G0 X-2.760 Y21.125
G0 Z1.0
G0 X-3.032 Y21.375
G0 Z0.0
G0 X-3.330 Y21.375
G0 Z1.0
G0 X-6.330 Y21.375
G0 Z0.0
G0 X-7.536 Y21.375
G0 Z1.0
G0 X-7.507 Y21.625
G0 Z0.0
G0 X-5.580 Y21.625
G0 Z1.0
G0 X-3.304 Y21.625
G0 Z0.0
G0 X-3.575 Y21.875
G0 Z1.0
G0 X-4.830 Y21.875
G0 Z0.0
G0 X-7.479 Y21.875
G0 Z1.0
G0 X-7.450 Y22.125
G0 Z0.0
G0 X-7.080 Y22.125
G0 Z1.0
G0 X-4.080 Y22.125
G0 Z0.0
G0 X-3.847 Y22.125
G0 Z1.0
G0 X-4.119 Y22.375
G0 Z0.0
G0 X-6.330 Y22.375
G0 Z1.0
G0 X-7.422 Y22.375
G0 Z0.0
G0 X-7.393 Y22.625
G0 Z1.0
G0 X-5.580 Y22.625
G0 Z0.0
G0 X-4.391 Y22.625
G0 Z1.0
G0 X-4.662 Y22.875
G0 Z0.0
G0 X-4.830 Y22.875
G0 Z1.0
G0 X-7.365 Y22.875
G0 Z0.0
G0 X-7.336 Y23.125
G0 Z1.0
G0 X-7.080 Y23.125
G0 Z0.0
G0 X-4.934 Y23.125
G0 Z1.0
G0 X-5.206 Y23.375
G0 Z0.0
G0 X-6.330 Y23.375
G0 Z1.0
G0 X-7.308 Y23.375
G0 Z0.0
G0 X-7.279 Y23.625
G0 Z1.0
G0 X-5.580 Y23.625
G0 Z0.0
G0 X-5.478 Y23.625
G0 Z1.0
G0 X-5.749 Y23.875
G0 Z0.0
G0 X-7.251 Y23.875
G0 Z1.0
G0 X-7.222 Y24.125
G0 Z0.0
G0 X-7.080 Y24.125
G0 Z1.0
G0 X-6.021 Y24.125
G0 Z0.0
G0 X-6.293 Y24.375
G0 Z1.0
G0 X-7.194 Y24.375
G0 Z0.0
G0 X-7.165 Y24.625
G0 Z1.0
G0 X-6.565 Y24.625
G0 Z0.0
G0 X-6.836 Y24.875
G0 Z1.0
G0 X-7.137 Y24.875
G0 Z0.0
G0 X-6.851 Y24.750
G0 Z1.0
G0 X-6.565 Y24.625
G0 Z0.0
G0 X-6.851 Y24.750
G0 Z1.0
G0 X-7.137 Y24.875
G0 Z0.0
G0 X23.614 Y-14.125
G0 Z1.0
G0 X24.216 Y-14.125
G0 Z0.0
G0 X24.819 Y-14.125
G0 Z1.0
G0 X24.216 Y-14.125
G0 Z0.0
G0 X23.614 Y-14.125
G0 Z1.0
G0 X24.819 Y-14.125
G0 Z0.0
G0 X24.670 Y-13.875
G0 Z1.0
G0 X22.920 Y-13.875
G0 Z0.0
G0 X21.698 Y-13.875
G0 Z1.0
G0 X19.782 Y-13.625
G0 Z0.0
G0 X20.670 Y-13.625
G0 Z1.0
G0 X23.670 Y-13.625
G0 Z0.0
G0 X24.522 Y-13.625
G0 Z1.0
G0 X24.373 Y-13.375
G0 Z0.0
G0 X21.420 Y-13.375
G0 Z1.0
G0 X18.420 Y-13.375
G0 Z0.0
G0 X17.865 Y-13.375
G0 Z1.0
G0 X15.949 Y-13.125
G0 Z0.0
G0 X16.170 Y-13.125
G0 Z1.0
G0 X19.170 Y-13.125
G0 Z0.0
G0 X22.170 Y-13.125
G0 Z1.0
G0 X24.225 Y-13.125
G0 Z0.0
G0 X24.076 Y-12.875
G0 Z1.0
G0 X22.920 Y-12.875
G0 Z0.0
G0 X19.920 Y-12.875
G0 Z1.0
G0 X16.920 Y-12.875
G0 Z0.0
G0 X14.033 Y-12.875
G0 Z1.0
G0 X12.117 Y-12.625
G0 Z0.0
G0 X14.670 Y-12.625
G0 Z1.0
G0 X17.670 Y-12.625
G0 Z0.0
G0 X20.670 Y-12.625
G0 Z1.0
G0 X23.670 Y-12.625
G0 Z0.0
G0 X23.928 Y-12.625
G0 Z1.0
G0 X23.779 Y-12.375
G0 Z0.0
G0 X21.420 Y-12.375
G0 Z1.0
G0 X18.420 Y-12.375
G0 Z0.0
G0 X15.420 Y-12.375
G0 Z1.0
G0 X12.420 Y-12.375
G0 Z0.0
G0 X10.201 Y-12.375
G0 Z1.0
G0 X8.284 Y-12.125
G0 Z0.0
G0 X10.170 Y-12.125
G0 Z1.0
G0 X13.170 Y-12.125
G0 Z0.0
G0 X16.170 Y-12.125
G0 Z1.0
G0 X19.170 Y-12.125
G0 Z0.0
G0 X22.170 Y-12.125
G0 Z1.0
G0 X23.631 Y-12.125
G0 Z0.0
G0 X22.901 Y-12.125
G0 Z1.0
G0 X22.170 Y-12.125
G0 Z0.0
G0 X22.901 Y-12.125
G0 Z1.0
G0 X23.631 Y-12.125
G0 Z0.0
G0 X6.379 Y13.125
G0 Z1.0
G0 X7.129 Y13.125
G0 Z0.0
G0 X7.879 Y13.125
G0 Z1.0
G0 X7.129 Y13.125
G0 Z0.0
G0 X6.379 Y13.125
G0 Z1.0
G0 X7.920 Y13.125
G0 Z0.0
G0 X10.920 Y13.125
G0 Z1.0
G0 X13.920 Y13.125
G0 Z0.0
G0 X16.920 Y13.125
G0 Z1.0
G0 X19.920 Y13.125
G0 Z0.0
G0 X22.050 Y13.125
G0 Z1.0
G0 X22.175 Y13.375
G0 Z0.0
G0 X20.670 Y13.375
G0 Z1.0
G0 X17.670 Y13.375
G0 Z0.0
G0 X14.670 Y13.375
G0 Z1.0
G0 X11.670 Y13.375
G0 Z0.0
G0 X8.670 Y13.375
G0 Z1.0
G0 X7.630 Y13.375
G0 Z0.0
G0 X8.880 Y13.625
G0 Z1.0
G0 X9.420 Y13.625
G0 Z0.0
G0 X12.420 Y13.625
G0 Z1.0
G0 X15.420 Y13.625
G0 Z0.0
G0 X18.420 Y13.625
G0 Z1.0
G0 X21.420 Y13.625
G0 Z0.0
G0 X22.300 Y13.625
G0 Z1.0
G0 X22.426 Y13.875
G0 Z0.0
G0 X22.170 Y13.875
G0 Z1.0
G0 X19.170 Y13.875
G0 Z0.0
G0 X16.170 Y13.875
G0 Z1.0
G0 X13.170 Y13.875
G0 Z0.0
G0 X10.170 Y13.875
G0 Z1.0
G0 X11.381 Y14.125
G0 Z0.0
G0 X13.920 Y14.125
G0 Z1.0
G0 X16.920 Y14.125
G0 Z0.0
G0 X19.920 Y14.125
G0 Z1.0
G0 X22.551 Y14.125
G0 Z0.0
G0 X22.676 Y14.375
G0 Z1.0
G0 X20.670 Y14.375
G0 Z0.0
G0 X17.670 Y14.375
G0 Z1.0
G0 X14.670 Y14.375
G0 Z0.0
G0 X12.632 Y14.375
G0 Z1.0
G0 X13.883 Y14.625
G0 Z0.0
G0 X15.420 Y14.625
G0 Z1.0
G0 X18.420 Y14.625
G0 Z0.0
G0 X21.420 Y14.625
G0 Z1.0
G0 X22.801 Y14.625
G0 Z0.0
G0 X22.927 Y14.875
G0 Z1.0
G0 X22.170 Y14.875
G0 Z0.0
G0 X19.170 Y14.875
G0 Z1.0
G0 X16.170 Y14.875
G0 Z0.0
G0 X15.133 Y14.875
G0 Z1.0
G0 X16.384 Y15.125
G0 Z0.0
G0 X16.920 Y15.125
G0 Z1.0
G0 X19.920 Y15.125
G0 Z0.0
G0 X22.920 Y15.125
G0 Z1.0
G0 X23.052 Y15.125
G0 Z0.0
G0 X23.177 Y15.375
G0 Z1.0
G0 X20.670 Y15.375
G0 Z0.0
G0 X17.670 Y15.375
G0 Z1.0
G0 X18.885 Y15.625
G0 Z0.0
G0 X21.420 Y15.625
G0 Z1.0
G0 X23.302 Y15.625
G0 Z0.0
G0 X23.427 Y15.875
G0 Z1.0
G0 X22.170 Y15.875
G0 Z0.0
G0 X20.136 Y15.875
G0 Z1.0
G0 X21.386 Y16.125
G0 Z0.0
G0 X22.920 Y16.125
G0 Z1.0
G0 X23.553 Y16.125
G0 Z0.0
G0 X23.678 Y16.375
G0 Z1.0
G0 X22.637 Y16.375
G0 Z0.0
G0 X23.153 Y16.375
G0 Z1.0
G0 X23.670 Y16.375
G0 Z0.0
G0 X23.153 Y16.375
G0 Z1.0
G0 X22.637 Y16.375
G0 Z0.0

G0 X0.0 Y0.0
M30
